ksrid lea,agency name,site url,webarchive_url,lea-qid,reference,city,city-qid,latlon,street address,county,county-qid,zip code,lea type
SB978-703,Baldwin Park Police Department,https://www.baldwinparkpolice.com/,https://web.archive.org/web/20230811094303/https://www.baldwinparkpolice.com/,Q120751286,,Baldwin Park,Q804878,"34.08536,-117.9603","14403 E Pacific Avenue Baldwin Park, CA 91706",Los Angeles County,Q104994,91706,Police
SB978-704,Bell Police Department,https://www.cityofbell.org/?NavID=1,https://web.archive.org/web/20130825153531/http://cityofbell.org/?navid=1,Q120751287,,Bell,Q377736,"33.97977,-118.1888","6330 Pine Ave. Bell, California 90201",Los Angeles County,Q104994,90201,Police
SB978-705,Bishop Police Department,https://www.cityofbishop.com/departments/police/,https://web.archive.org/web/20150721005207/http://www.cityofbishop.com/departments/police/,Q23016663,,Bishop,Q852658,"37.3668,-118.3953","377 West Line Street, Bishop, CA 93514",Inyo County,Q109670,93514,Police
SB978-706,Burbank-Glendale-Pasadena Airport Authority Police Department,https://www.hollywoodburbankairport.com/airport-authority/bgpaa-police/,https://web.archive.org/web/20200509135050/https://hollywoodburbankairport.com/airport-authority/bgpaa-police/,Q120751288,,Burbank,Q39561,"34.18182,-118.3078","2627 N Hollywood Way Burbank, CA 91505",Los Angeles County,Q104994,91505,Police
SB978-710,Carmel Police Department,https://ci.carmel.ca.us/,https://web.archive.org/web/20010608065944/http://www.ci.carmel.ca.us/,Q16852283,,Carmel-by-the-Sea,Q625458,"36.55443,-121.9244","Monte Verde St, Carmel-By-The-Sea, CA 93923",Monterey County,Q108072,93921,Police
SB978-711,Cerritos Community College District Police Department,https://www.cerritos.edu/police/default.htm,https://web.archive.org/web/20180319152651/http://www.cerritos.edu/police/default.htm,Q120751564,,Cerritos,Q575316,"33.86866,-118.0637","Corner of Lot 10 & New Falcon Way
11090 New Falcon Way,
Cerritos, CA 90703",Los Angeles County,Q104994,90703,College/University
SB978-714,Coast Community College District Police Department,https://www.goldenwestcollege.edu/public-safety/index.html,https://web.archive.org/web/20200918234132/https://www.goldenwestcollege.edu/public-safety/index.html,Q120751566,,Costa Mesa,Q499196,"33.66389,-117.9024",,Orange County,Q5925,92647,College/University
SB978-715,Compton Community College Police Department,https://www.compton.edu/campus-safety/index.aspx,https://web.archive.org/web/20230513210125/https://www.compton.edu/campus-safety/index.aspx,Q120751567,,Compton,Q487119,"33.89569,-118.2244","Campus Police Building 1111. E. Artesia Blvd Compton CA, 90221",Los Angeles County,Q104994,90221,College/University
SB978-718,Corning Police Department,https://www.corning.org/departments/police-department/,https://web.archive.org/web/20210622003243/https://www.corning.org/departments/police-department/,Q120751568,,Corning,Q2997606,"39.92791,-122.1791","774 Third Street
Corning, CA 96021",Tehama County,Q109705,96021,Police
SB978-719,Crescent City Police Department,https://www.crescentcity.org/departments/Police,https://web.archive.org/web/20210422101349/https://www.crescentcity.org/departments/Police,Q120751290,,Crescent City,Q166866,"41.756111,-124.201667","686 G St.
Crescent City, CA 95531",Del Norte County,Q156186,95531,Police
SB978-720,CSU Maritime Academy Police Department,https://www.csum.edu/police-department/,https://web.archive.org/web/20201123225923/https://www.csum.edu/police-department/,Q120751569,,Vallejo,Q208445,"38.10095,-122.2549","200 Maritime Academy Drive
Vallejo, CA 94590",Solano County,Q108083,94590,College/University
SB978-721,CSU San Francisco Police Department,https://upd.sfsu.edu/,https://web.archive.org/web/20151120121405/http://upd.sfsu.edu/,Q120751570,,San Francisco,Q62,"37.7557,-122.4428","1600 Holloway Avenue
San Francisco, CA 94132",San Francisco,Q62,94132,College/University
SB978-722,CSU Stanislaus University Police Department,https://www.csustan.edu/upd,https://web.archive.org/web/20090522150018/http://www.csustan.edu/UPD/,Q120751571,,Turlock,Q1011205,"37.56,-120.99","Science I, 1 University Circle, 1 University Cir, Turlock, CA 95382",Stanislaus County,Q108503,95382,College/University
SB978-723,El Rancho Unified School District Police Department,https://www.erusd.org/apps/pages/index.jsp?uREC_ID=155468&type=d&pREC_ID=2200244,https://web.archive.org/web/20211228233652/https://www.erusd.org/apps/pages/index.jsp?uREC_ID=155468&type=d&pREC_ID=2200244,Q120751572,,Pico Rivera,Q828706,"33.988889,-118.089167","9115 Balfour St. 
Pico Rivera CA  90660",Los Angeles County,Q104994,90660,School District
SB978-725,Fontana Unified School District Police Department,https://www.fusd.net/domain/245,https://web.archive.org/web/20200215153359/https://www.fusd.net/domain/245,Q120751573,,Fontana,Q491128,"34.10261,-117.4358","17005 Upland Ave, Fontana, CA 92335",San Bernardino County,Q108053,92335,School District
SB978-726,Foothill De-Anza Community College District Police Department,https://police.fhda.edu/,https://web.archive.org/web/20201215175046/http://police.fhda.edu/,Q120751574,,Los Altos,Q864124,"37.38308,-122.1142","12345 El Monte Road
Los Altos Hills, CA 94022",Santa Clara County,Q110739,94022,College/University
SB978-727,Fulton-El Camino Park Police Department,https://www.fecrpd.com/park-police,https://web.archive.org/web/20201001132620/https://www.fecrpd.com/park-police,Q120751575,,Sacramento,Q18013,"38.57944,-121.4908","2201 Cottage Way, Sacramento CA 95825",Sacramento County,Q108131,95825,Police
SB978-728,Glendale Police Department Park Rangers,https://www.glendaleca.gov/government/departments/community-services-parks/csp-policies-procedures,https://web.archive.org/web/20220320194524/https://www.glendaleca.gov/government/departments/community-services-parks/csp-policies-procedures,Q120751576,,Glendale,Q485716,"34.14633,-118.2486",,Los Angeles County,Q104994,,Police
SB978-731,Imperial County Sheriff's Department,https://icso.imperialcounty.org/,https://web.archive.org/web/20201016200854/https://icso.imperialcounty.org/,Q120751577,,El Centro,Q495369,"32.79616,-115.57","328 Applestill Road El Centro, CA 92243",Imperial County,Q169952,92243,Sheriff
SB978-734,Lake Shastina District Police Department,https://www.lakeshastina.com/lscsdinfo.htm,https://web.archive.org/web/20100418221559/http://www.lakeshastina.com/lscsdinfo.htm,Q120751578,,Weed,Q985254,"41.42265,-122.386127","16309 Everhart Dr, Weed, CA 96094",Siskiyou County,Q156374,96094,Police
SB978-735,Lathrop Police Department,https://www.ci.lathrop.ca.us/police,https://web.archive.org/web/20200821064557/https://www.ci.lathrop.ca.us/police,Q120751579,,Lathrop,Q986862,"37.80439,-121.3026","940 River Islands Parkway Lathrop , CA 95330",San Joaquin County,Q108499,95330,Police
SB978-737,Mariposa County Sheriff's Department,https://www.mariposacounty.org/82/Sheriffs-Office,https://web.archive.org/web/20181016200145/http://www.mariposacounty.org/82/Sheriffs-Office,Q120751580,,Mariposa,Q2396842,"37.48411,-119.9647","5099 Old Highway Road
Mariposa, CA 95338",Mariposa County,Q156191,95338,Sheriff
SB978-738,Montebello Police Department,https://www.montebello.k12.ca.us/apps/pages/index.jsp?uREC_ID=2210591&type=d&pREC_ID=2195302,https://web.archive.org/web/20210802232458/https://www.montebello.k12.ca.us/apps/pages/index.jsp?uREC_ID=2210591&type=d&pREC_ID=2195302,Q120751581,,Montebello,Q664503,"34.01958,-118.1164","1600 W Beverly Blvd, Montebello, CA 90640",Los Angeles County,Q104994,90640,College/University
SB978-740,Oakland City Housing Authority Police Department,http://www.ohapd.org/,https://web.archive.org/web/20071209194209/http://www.ohapd.org/,Q120751582,,Oakland,Q17042,"37.80508,-122.2731","2525 E. 12th Street Oakland, CA 94601",Alameda County,Q107146,94601,Public Safety
SB978-741,Oakley Police Department,https://www.ci.oakley.ca.us/departments/police/,https://web.archive.org/web/20160117184128/http://www.ci.oakley.ca.us/departments/police/,Q120751583,,Oakley,Q950912,"37.99638,-121.713","3231 Main St, Oakley, CA 94561",Contra Costa County,Q108058,94561,Police
SB978-745,Port San Luis Harbor District Harbor Patrol Department,https://www.portsanluis.com/,https://web.archive.org/web/19981201065449/http://portsanluis.com/,Q120751584,,Avila Beach,Q3477456,"35.17931,-120.7354",,San Luis Obispo County,Q49014,,Police
SB978-747,Salinas Police Department,http://www.salinaspd.com/,https://web.archive.org/web/19961230215006/http://salinaspd.com/,Q120751585,,Salinas,Q488125,"36.67087,-121.6548",312 E Alisal St Salinas CA 93901,Monterey County,Q108072,93901,Police
SB978-748,San Bernardino Community College District Police Department,https://sbccd.edu/district-services/police-department/index.php,https://web.archive.org/web/20210413073004/https://sbccd.edu/district-services/police-department/index.php,Q120751586,,San Bernardino,Q486168,"34.1,-117.3","Campus Center, 701 S Mt Vernon Ave, San Bernardino, CA 92410",San Bernardino County,Q108053,92410,College/University
SB978-749,San Bernardino Unified School District Police Department,https://www.sbcusd.com/departments/district-police,https://web.archive.org/web/20230403194541/http://www.sbcusd.com/departments/district-police,Q120751588,,San Bernardino,Q486168,"34.1,-117.3","536 W. Baseline Street San Bernardino, CA 92410",San Bernardino County,Q108053,92410,School District
SB978-750,San Carlos Police Department,https://www.smcsheriff.com/patrol-services/san-carlos-police-bureau,https://web.archive.org/web/20171027163848/http://www.smcsheriff.com/patrol-services/san-carlos-police-bureau,Q120751291,,San Carlos,Q383234,"37.50494,-122.2628","600 Elm Street San Carlos, CA 94070",San Mateo County,Q108101,94070,Police
SB978-751,San Diego Community College District Police Department,https://www.sdccd.edu/about/departments-and-offices/police-department/,https://web.archive.org/web/20191015160516/https://www.sdccd.edu/about/departments-and-offices/police-department/,Q120751589,,San Diego,Q16552,"32.71568,-117.1617","1536 Frazee Rd, San Diego, CA 92108",San Diego County,Q108143,92108,College/University
SB978-752,San Francisco Community College District Police Department,https://www.ccsf.edu/campus-police,https://web.archive.org/web/20200807130959/https://www.ccsf.edu/campus-police,Q120751590,,San Francisco,Q62,"37.7557,-122.4428",,San Francisco,Q62,,College/University
SB978-754,San José Evergreen Community College District Police Department,http://www.sjeccd.edu/district-services/district-police,https://web.archive.org/web/20140320103609/http://www.sjeccd.edu/district-services/district-police,Q120751591,,San Jose,Q16553,"37.33865,-121.8854","40 S. Market Street, San Jose, CA 95113",Santa Clara County,Q110739,95113,College/University
SB978-756,Solano Community College District Department of Public Safety,http://www.solano.edu/police/,https://web.archive.org/web/20120812084048/http://www.solano.edu/police/,Q120751592,,Phelan,Q3470873,"34.42605,-117.5725",,San Bernardino County,Q108053,,College/University
SB978-757,Stallion Springs Police Department,https://www.stallionspringscsd.com/police-department-ec708c6,,Q120751593,,Stallion Springs,Q651945,"35.08237,-118.6362","27800 Stallion Springs Drive, Stallion Springs CA 93561",Kern County,Q108047,93561,Police
SB978-758,State Center Community College District Police Department,https://www.scccd.edu/departments/police/index.html,https://web.archive.org/web/20210801094142/https://www.scccd.edu/departments/police/index.html,Q120751594,,Fresno,Q43301,"36.74084,-119.7855","1940 N Calaveras St, Fresno, CA 93704",Fresno County,Q271915,93704,College/University
SB978-759,Susanville Police Department,http://www.cityofsusanville.net/rooptown/police-department/,https://web.archive.org/web/20201016180315/http://www.cityofsusanville.net/rooptown/police-department/,Q120751595,,Susanville,Q629584,"40.4157,-120.6498","1801 Main Street Susanville, CA 96130",Lassen County,Q156340,96130,Police
SB978-760,Sutter Creek Police Department,https://cityofsuttercreek.org/sutter-creek-police-department/,https://web.archive.org/web/20160523124525/http://cityofsuttercreek.org/sutter-creek-police-department/,Q120751596,,Sutter Creek,Q1257603,"38.39341,-120.803","18 Main Street
Sutter Creek, CA 95685",Amador County,Q156177,95685,Police
SB978-761,Tulare County Probation Department,http://tularecounty.ca.gov/probation/,https://web.archive.org/web/20130312101605/http://www.tularecounty.ca.gov/probation/,Q120751597,,Visalia,Q495373,"36.33377,-119.2926","3241 West Noble Avenue
Visalia, California 93277",Tulare County,Q109686,93277,Probation
SB978-762,Tulelake Police Department,http://www.cityoftulelake.com/departments/police-department,https://web.archive.org/web/20170209025219/http://www.cityoftulelake.com/departments/police-department,Q120751598,,Tulelake,Q2453325,"41.95422,-121.4767","470 C St, Tulelake, CA 96134",Siskiyou County,Q156374,96134,Police
SB978-766,Val Verde Unified School District Police Department,https://police-department-valverde.schoolblocks.com/en-US,https://web.archive.org/web/20230418010717/https://police-department-valverde.schoolblocks.com/en-US,Q113181325,,Perris,Q983609,"33.78241,-117.2283","975 Morgan St, Perris, CA 92571",Riverside County,Q108111,92571,School District
SB978-769,Yuba Community College District Police Department,https://yc.yccd.edu/campus/safety/,https://web.archive.org/web/20220817013956/https://yc.yccd.edu/campus/safety/,Q120751599,,Yuba City,Q169948,"39.14094,-121.6198","2088 North Beale Road – Building 1600, Marysville, CA 95901",Sutter County,Q156377,95901,College/University
SB978-001,Alameda County District Attorney,https://www.alcoda.org,https://web.archive.org/web/20080514035529/http://www.alcoda.org/,Q113181124,,Oakland,Q17042,"37.80508,-122.2731","1225 Fallon Street, Suite 900
Oakland, CA 94612",Alameda County,Q107146,94612,District Attorney
SB978-002,Alameda County Sheriff's Office,https://www.alamedacountysheriff.org,https://web.archive.org/web/20021201135745/http://alamedacountysheriff.org/,Q4705866,,Oakland,Q17042,"37.80508,-122.2731","1401 Lakeside Drive, 12th Floor
Oakland, CA 94612-4305",Alameda County,Q107146,94612-4305,Sheriff
SB978-003,Alameda Police Department,https://www.alamedaca.gov,https://web.archive.org/web/20130218090425/http://alamedaca.gov/,Q113181126,,Alameda,Q490744,"37.76707,-122.2458",1555 Oak Street Alameda 94501,Alameda County,Q107146,94501,Police
SB978-004,Albany Police Department,https://www.albanyca.org/departments/police-department,https://web.archive.org/web/20170620162206/http://www.albanyca.org/departments/police-department,Q4709366,,Albany,Q671480,"37.88769,-122.2981","1000 San Pablo Ave.
Albany, CA 94706",Contra Costa County,Q108058,94706,Police
SB978-005,Alhambra Police Department,https://www.cityofalhambra.org/231/Police-Department,https://web.archive.org/web/20210921132304/https://cityofalhambra.org/231/Police-Department,Q113181128,,Alhambra,Q752681,"34.09442,-118.1278","211 S 1st Street
Alhambra, CA 91801",Los Angeles County,Q104994,91801,Police
SB978-008,Alpine County Sheriff's Department,https://www.alpinecountyca.gov/204/Sheriff,https://web.archive.org/web/20201030070604/http://www.alpinecountyca.gov/204/Sheriff,Q113181131,,Markleeville,Q1019532,"38.69459,-119.78","PO Box 278
Markleeville, CA 96120",Alpine County,Q108077,96120,Sheriff
SB978-009,Alturas Police Department,http://www.cityofalturas.us/departments/public_safety/index.php,https://web.archive.org/web/20170606162441/http://www.cityofalturas.us/departments/public_safety/index.php,Q113181132,,Alturas,Q446281,"41.49432,-120.5426","200 W. North Street Alturas, CA. 96101",Modoc County,Q109695,96101,Police
SB978-011,Amador County Sheriff's Department,https://www.amadorsheriff.org,https://web.archive.org/web/20101208233045/http://www.amadorsheriff.org/,Q120751294,,Jackson,Q1966879,"38.34712,-120.7734","700 Court Street Jackson, CA 95642",Amador County,Q156177,95642,Sheriff
SB978-012,American River College Police Department,https://police.losrios.edu,https://web.archive.org/web/20110504130710/http://police.losrios.edu/,Q120751295,Los Rios Community College District Police Department,Sacramento,Q18013,"38.57944,-121.4908","1410 Ethan Way, Sacramento, CA 95825",Sacramento County,Q108131,95825,College/University
SB978-014,Anaheim Police Department,https://www.anaheim.net/178/About,https://web.archive.org/web/20210923235005/https://anaheim.net/178/About,Q4750889,,Anaheim,Q49247,"33.83286,-117.9152","425 S. Harbor Blvd.
Anaheim, CA 92805",Orange County,Q5925,92805,Police
SB978-015,Anderson Police Department,https://www.andersonpolice.org,https://web.archive.org/web/20170710021335/http://www.andersonpolice.org/,Q120751296,,Anderson,Q491469,"40.45056,-122.3012","2220 North Street
Anderson, CA 96007",Shasta County,Q156350,96007,Police
SB978-016,Angels Camp Police Department,https://angelscamp.gov/police/,https://web.archive.org/web/20161115132512/http://angelscamp.gov/police/,Q120751297,,Angels Camp,Q2603725,"38.07009,-120.5408","200 Monte Verda St, Angels Camp, CA 95222",Calaveras County,Q271613,95222,Police
SB978-017,Antioch Police Department,https://www.antiochca.gov/police/,https://web.archive.org/web/20180902110144/https://www.antiochca.gov/police/,Q4775027,,Antioch,Q495357,"38.01583,-121.8197","300 L Street
Antioch, CA 94509",Contra Costa County,Q108058,94509,Police
SB978-018,Apple Valley Unified School District Police Department,https://www.avusd.org/departments/district-police,https://web.archive.org/web/20200919115143/https://www.avusd.org/departments/district-police,Q120753247,,Apple Valley,Q621372,"34.52373,-117.2164","12555 Navajo Road, Apple Valley, CA  92308",San Bernardino County,Q108053,92308,School District
SB978-019,Arcadia Police Department,https://www.arcadiaca.gov/protect/police_department/index.php,https://web.archive.org/web/20200407192619/https://www.arcadiaca.gov/protect/police_department/index.php,Q17182570,,Arcadia,Q534536,"34.13641,-118.0386","250 W Huntington Dr, Arcadia, CA 91007",Los Angeles County,Q104994,91007,Police
SB978-020,Arcata Police Department,https://www.cityofarcata.org/206/Police,https://web.archive.org/web/20151203142114/http://www.cityofarcata.org/206/Police,Q120751299,,Arcata,Q631752,"40.86766,-124.0851","736 F Street
Arcata, CA 95521",Humboldt County,Q109651,95521,Police
SB978-021,Arroyo Grande Police Department,http://www.agpd.org,https://web.archive.org/web/20010906205447/http://www.agpd.org/,Q120751300,,Arroyo Grande,Q703206,"35.12435,-120.5768","200 N Halcyon Rd, Arroyo Grande, CA 93420",San Luis Obispo County,Q49014,93420,Police
SB978-022,Arvin Police Department,https://www.arvin.org/181/Police,https://web.archive.org/web/20210116170435/https://www.arvin.org/181/Police,Q120751301,,Arvin,Q717385,"35.20902,-118.8289","200 Campus Drive
Arvin, CA 93203",Kern County,Q108047,93203,Police
SB978-023,Atascadero Police Department,https://www.atascadero.org,https://web.archive.org/web/20000303100201/http://www.atascadero.org/,Q120751302,,Atascadero,Q653827,"35.4888,-120.6693","5505 El Camino Real, Atascadero, CA 93422",San Luis Obispo County,Q49014,93422,Police
SB978-024,Atherton Police Department,https://www.ci.atherton.ca.us/635/Police-Department,https://web.archive.org/web/20220814155056/https://ci.atherton.ca.us/635/Police-Department,Q120751303,,Atherton,Q2869080,"37.46248,-122.1978","80 Fair Oaks Lane Atherton, CA 94027",San Mateo County,Q108101,94027,Police
SB978-025,Atwater Police Department,https://www.atwater.org/departments/police/,https://web.archive.org/web/20200814104343/https://www.atwater.org/departments/police/,Q120751304,,Atwater,Q595806,"37.34584,-120.6088","750 Bellevue Rd Atwater, CA 95301",Merced County,Q109690,95301,Police
SB978-026,Auburn Police Department,https://www.auburn.ca.gov/168/Police,https://web.archive.org/web/20160314041008/http://www.auburn.ca.gov/168/Police,Q4819290,,Auburn,Q758542,"38.8962,-121.0789","1215 Lincoln Way
Auburn, CA 95603",Placer County,Q156353,95603,Police
SB978-027,Avenal Police Department,https://www.cityofavenal.com/217/Police,https://web.archive.org/web/20160406193145/http://www.cityofavenal.com/217/Police,Q120751305,,Avenal,Q790415,"36.0039,-120.1298","317 Alpine Street
Avenal, CA 93204",Kings County,Q156358,93204,Police
SB978-029,Azusa Police Department,https://azusapd.org,https://web.archive.org/web/20001012105159/http://www.azusapd.org/,Q120751306,,Azusa,Q794396,"34.13361,-117.906","725 N. Alameda Avenue, Azusa, CA 91702",Los Angeles County,Q104994,91702,Police
SB978-030,Bakersfield Police Department,https://www.bakersfieldcity.us/257/Police,https://web.archive.org/web/20210412030508/https://www.bakersfieldcity.us/257/Police,Q4849312,,Bakersfield,Q49256,"35.36723,-119.0189","1601 Truxtun Avenue
Headquarters
Bakersfield, CA 93301-5109",Kern County,Q108047,93301-5109,Police
SB978-033,Banning Police Department,http://www.banning.ca.us/17/Banning-Police-Department,https://web.archive.org/web/20190830160747/http://banning.ca.us/17/Banning-Police-Department,Q120751308,,Banning,Q806903,"33.92544,-116.8765","125 E. Ramsey Street Banning, CA 92220",Riverside County,Q108111,92220,Police
SB978-034,Barstow Police Department,https://www.barstowca.org/departments/police,https://web.archive.org/web/20201123065934/https://www.barstowca.org/departments/police,Q120751309,,Barstow,Q499174,"34.89308,-117.0255","220 E. Mountain View St, Suite B
Barstow, CA 92311",San Bernardino County,Q108053,92311,Police
SB978-035,Bay Area Rapid Transit Police Department,https://www.bart.gov/about/police,https://web.archive.org/web/20080704171212/http://bart.gov/about/police/,Q4834641,,Oakland,Q17042,"37.80508,-122.2731",,San Francisco Bay Area Rapid Transit District (Calif.),,,Transit
SB978-036,Bear Valley Police Department,https://www.bvcsd.com/police-department,https://web.archive.org/web/20200924191919/https://www.bvcsd.com/police-department,Q120751314,,Tehachapi,Q985253,"35.13224,-118.4491","25101 Bear Valley Rd, Tehachapi, CA 93561",Alpine County,Q108077,93561,Police
SB978-037,Beaumont Police Department,http://beaumontpd.org,https://web.archive.org/web/20170315224739/http://www.beaumontpd.org/,Q120751315,,Beaumont,Q813431,"33.92938,-116.9746","660 Orange Avenue
Beaumont, CA 92223",Riverside County,Q108111,92223,Police
SB978-038,Bell Gardens Police Department,https://www.bellgardens.org/government/public-safety/police-department,https://web.archive.org/web/20190413155658/http://www.bellgardens.org/government/public-safety/police-department,Q120751316,,Bell Gardens,Q815720,"33.96998,-118.149","7100 Garfield Ave, Bell Gardens, CA 90201",Los Angeles County,Q104994,90201,Police
SB978-040,Belmont Police Department,https://www.belmont.gov/departments/police,https://web.archive.org/web/20191108175055/https://www.belmont.gov/departments/police,Q120751317,,Belmont,Q816099,"37.51842,-122.2763","1 Twin Pines Ln # 160, Belmont, CA 94002",San Mateo County,Q108101,94002,Police
SB978-041,Belvedere Police Department,https://www.cityofbelvedere.org/117/Police,https://web.archive.org/web/20181206174037/http://www.cityofbelvedere.org/117/Police,Q120751318,,Belvedere,Q2054234,"37.87494,-122.4674","450 San Rafael Avenue Belvedere, CA 94920",Marin County,Q108117,94920,Police
SB978-042,Benicia Police Department,https://www.ci.benicia.ca.us/police,https://web.archive.org/web/20141108220522/http://www.ci.benicia.ca.us/police,Q120751319,,Benicia,Q817301,"38.05285,-122.1535","200 East L. Street Benicia, CA 94510",Solano County,Q108083,94510,Police
SB978-043,Berkeley Police Department,https://berkeleyca.gov/safety-health/police,https://web.archive.org/web/20220502181918/https://berkeleyca.gov/safety-health/police,Q4892083,,Berkeley,Q484678,"37.86988,-122.2705","2100 Martin Luther King Jr Way, Berkeley, CA 94704",Alameda County,Q107146,94704,Police
SB978-044,Beverly Hills Police Department,https://www.beverlyhills.org/departments/policedepartment/,https://web.archive.org/web/20190524114259/http://www.beverlyhills.org/departments/policedepartment/,Q4899559,,Beverly Hills,Q127856,"34.0736,-118.4005","464 N. Rexford Dr. Beverly Hills, CA 90210",Los Angeles County,Q104994,90210,Police
SB978-049,Blythe Police Department,https://www.cityofblythe.ca.gov/19/Police-Department,https://web.archive.org/web/20210226153724/https://www.cityofblythe.ca.gov/19/Police-Department,Q120751320,,Blythe,Q886915,"33.6104,-114.5985","240 N Spring St, Blythe, CA 92225",Riverside County,Q108111,92225,Police
SB978-050,Brawley Police Department,https://www.brawley-ca.gov/section/Police-Department,https://web.archive.org/web/20150218210909/http://www.brawley-ca.gov/section/Police-Department,Q120751321,,Brawley,Q902878,"32.97863,-115.534","Henry Graham Building, 351 Main St, Brawley, CA 92227",Imperial County,Q169952,92227,Police
SB978-051,Brea Police Department,https://www.ci.brea.ca.us/1595/Police-Services,https://web.archive.org/web/20220121034102/https://www.ci.brea.ca.us/1595/Police-Services,Q4959090,,Brea,Q302612,"33.91759,-117.889","1 Civic Center Circle Plaza Level Brea, CA 92821",Orange County,Q5925,92821,Police
SB978-052,Brentwood Police Department,https://www.brentwoodca.gov/government/police,https://web.archive.org/web/20220802212330/https://www.brentwoodca.gov/government/police,Q120751322,,Brentwood,Q846426,"37.93406,-121.6927","9100 Brentwood Blvd, Brentwood, CA 94513",Contra Costa County,Q108058,94513,Police
SB978-053,Brisbane Police Department,https://www.brisbaneca.org/police,https://web.archive.org/web/20200410213911/https://www.brisbaneca.org/police,Q120751323,,Brisbane,Q917671,"37.680833,-122.419167","147 Valley Drive Brisbane, CA 94005",San Francisco,Q62,94005,Police
SB978-054,Broadmoor Police Department,https://www.broadmoorpolice.com,https://web.archive.org/web/20020202231906/http://www.broadmoorpolice.com/,Q120751324,,Daly City,Q370925,"37.69109,-122.4724","388 Eighty - Eighth Street Street
Broadmoor CA 94015-1717",San Mateo County,Q108101,94015-1717,Police
SB978-055,Buena Park Police Department,https://www.bppd.com/,https://web.archive.org/web/19980111060929/http://bppd.com/,Q120751325,,Buena Park,Q838762,"33.8652,-117.998","6640 Beach Blvd. Buena Park, California 90622",Orange County,Q5925,90622,Police
SB978-056,Burbank Police Department,https://www.burbankpd.org,https://web.archive.org/web/20130601072040/http://burbankpd.org/,Q120751326,,Burbank,Q39561,"34.18182,-118.3078","200 North Third St., Burbank, CA 91502",Los Angeles County,Q104994,91502,Police
SB978-058,Burlingame Police Department,https://www.burlingame.org/departments/police_department/index.php,https://web.archive.org/web/20180901122811/https://burlingame.org/departments/police_department/index.php,Q120751327,,Burlingame,Q986867,"37.58037,-122.3509","1111 Trousdale Drive, Burlingame, CA 94010  ",San Mateo County,Q108101,94010,Police
SB978-062,Butte County Sheriff's Department/Coroner,https://www.buttecounty.net/1393/SheriffCoroner,https://web.archive.org/web/20230310140536/https://www.buttecounty.net/1393/SheriffCoroner,Q120751328,,Oroville,Q850972,"39.51388,-121.5561","5 Gillick Way Oroville, CA 95965 ",Butte County,Q156181,95965,Sheriff
SB978-066,Calaveras County Sheriff's Department,https://sheriff.calaverasgov.us,https://web.archive.org/web/20120128224500/http://sheriff.calaverasgov.us/,Q120751329,,San Andreas,Q2371380,"38.19635,-120.6814","1045 Jeff Tuttle Drive San Andreas, CA 95249",Calaveras County,Q271613,95249,Sheriff
SB978-067,Calexico Police Department,https://www.calexico.ca.gov/index.asp?SEC=029A22CB-1659-4003-84BC-20534F81C51A,https://web.archive.org/web/20201016185833/https://www.calexico.ca.gov/index.asp?SEC=029A22CB-1659-4003-84BC-20534F81C51A,Q120751330,,Calexico,Q753034,"32.67864,-115.4987","420 E. Fifth Street Calexico, California 92231",Imperial County,Q169952,92231,Police
SB978-068,California City Police Department,https://www.californiacity-ca.gov/CC/index.php/departments-1/finance-5,https://web.archive.org/web/20150803231351/http://www.californiacity-ca.gov/CC/index.php/departments-1/finance-5,Q120751331,,California City,Q732125,"35.12894,-117.9856","21130 Hacienda Blvd California City, CA 93505",Kern County,Q108047,93505,Police
SB978-071,Calistoga Police Department,https://www.ci.calistoga.ca.us/city-hall/departments-services/police-department,https://web.archive.org/web/20160305200755/http://www.ci.calistoga.ca.us/city-hall/departments-services/police-department,Q120751332,,Calistoga,Q983598,"38.57878,-122.5795","1235 Washington Street, Calistoga CA 94515",Napa County,Q108137,94515,Police
SB978-072,Campbell Police Department,https://www.campbellca.gov/1030/Police-Department,https://web.archive.org/web/20200805125348/https://www.campbellca.gov/1030/Police-Department,Q19878935,,Campbell,Q988721,"37.2889,-121.9449","City Hall - Lower Level  70 N 1st St, Campbell, CA 95008",Santa Clara County,Q110739,95008,Police
SB978-073,Capitola Police Department,https://www.cityofcapitola.org/police,https://web.archive.org/web/20131127113030/http://www.cityofcapitola.org/police,Q120751600,,Capitola,Q986894,"36.97472,-121.9537","422 Capitola Ave Capitola, California 95010",Santa Cruz County,Q108122,95010,Police
SB978-074,Carlsbad Police Department,https://www.carlsbadca.gov/departments/police,https://web.archive.org/web/20210518161445/https://www.carlsbadca.gov/departments/police,Q120751601,,Carlsbad,Q491099,"33.16588,-117.3382","2560 Orion Way Carlsbad, CA 92010",San Diego County,Q108143,92010,Police
SB978-075,Carmel Police Department,https://ci.carmel.ca.us/police-fire,https://web.archive.org/web/20200318105726/https://ci.carmel.ca.us/police-fire,Q16852283,,Carmel-by-the-Sea,Q625458,"36.55443,-121.9244","Junipero Ave & 4th Ave, Carmel-By-The-Sea, CA 93923",Monterey County,Q108072,93923,Police
SB978-076,Cathedral City Police Department,http://www.cathedralcitypolice.com,https://web.archive.org/web/20031018141344/http://www.cathedralcitypolice.com/,Q120751602,,Cathedral City,Q578518,"33.78101,-116.4643","68-700 Avenida Lalo Guerrero
Cathedral City, CA 92234",Riverside County,Q108111,92234,Police
SB978-077,Central Marin Police Authority,https://www.centralmarinpolice.org,https://web.archive.org/web/20131201094815/http://www.centralmarinpolice.org/,Q20714801,,Larkspur,Q984595,"37.93506,-122.5355","250 Doherty Dr.
Larkspur, CA 94939",Marin County,Q108117,94939,Police
SB978-078,Ceres Department of Public Safety,https://www.ci.calistoga.ca.us/city-hall/departments-services/police-department,https://web.archive.org/web/20160305200755/http://www.ci.calistoga.ca.us/city-hall/departments-services/police-department,Q113181153,,Ceres,Q594171,"37.59476,-120.956","1235 Washington Street, Calistoga CA 94515",Stanislaus County,Q108503,94515,Police
SB978-080,Chaffey Community College District Police Department,https://www.chaffey.edu/police/index.php,https://web.archive.org/web/20200621164802/http://chaffey.edu/police/index.php,Q113181156,,Rancho Cucamonga,Q495365,"34.1028,-117.5753",,San Bernardino County,Q108053,,College/University
SB978-082,Chico Police Department,https://chico.ca.us/police-department,https://web.archive.org/web/20200807012550/https://chico.ca.us/police-department,Q113181159,,Chico,Q432152,"39.732,-121.842","1460 Humboldt Rd
Chico, CA 95928",Butte County,Q156181,95928,Police
SB978-083,Chino Police Department,https://www.cityofchino.org/231/Police,https://web.archive.org/web/20220520170507/https://cityofchino.org/231/Police,Q113181160,,Chino,Q506395,"34.01342,-117.6893","5450 Guardian Way
Chino, CA 91710",San Bernardino County,Q108053,91710,Police
SB978-084,Chowchilla Police Department,https://www.cityofchowchilla.org/176/Police-Department,https://web.archive.org/web/20200920141953/https://cityofchowchilla.org/176/Police-Department,Q113181162,,Chowchilla,Q985260,"37.12319,-120.2596","122 Trinity Avenue
Chowchilla, CA 93610",Madera County,Q109661,93610,Police
SB978-085,Chula Vista Police Department,https://www.chulavistaca.gov/departments/police-department,https://web.archive.org/web/20150203035009/http://www.chulavistaca.gov/departments/police-department,Q5116088,,Chula Vista,Q49270,"32.6409,-117.0843","315 Fourth Avenue, Chula Vista, CA 91910",San Diego County,Q108143,91910,Police
SB978-087,Citrus Heights Police Department,http://www.citrusheights.net/1254/Police-Department,https://web.archive.org/web/20230530234831/https://citrusheights.net/1254/Police-Department,Q113181165,,Citrus Heights,Q658402,"38.69879,-121.2717","6315 Fountain Square Drive
Citrus Heights, CA 95621",Sacramento County,Q108131,95621,Police
SB978-089,Claremont Police Department,https://www.ci.claremont.ca.us/government/departments-divisions/police-department,https://web.archive.org/web/20150418212943/http://www.ci.claremont.ca.us/government/departments-divisions/police-department,Q120751603,,Claremont,Q506398,"34.09641,-117.7164","570 W. Bonita Ave. 
Claremont, CA 91711",Los Angeles County,Q104994,91711,Police
SB978-090,Clayton Police Department,https://claytonca.gov/police/,https://web.archive.org/web/20210617083031/https://claytonca.gov/police/,Q120751604,,Clayton,Q948168,"37.94285,-121.9372","6000 Heritage Trail, Clayton, CA 94517",Contra Costa County,Q108058,94517,Police
SB978-091,Clearlake Police Department,https://clearlake.ca.us/210/Police-Department,https://web.archive.org/web/20140127055904/http://clearlake.ca.us/210/Police-Department,Q120751605,,Clearlake,Q376246,"38.95072,-122.6224","14050 Olympic Drive
Clearlake, CA 95422",Lake County,Q156361,95422,Police
SB978-092,Cloverdale Police Department,https://www.cloverdale.net/78/Police,https://web.archive.org/web/20230517020400/https://www.cloverdale.net/78/Police,Q120751606,,Cloverdale,Q928609,"38.8061,-123.0177",,Sonoma County,Q108067,95425,Police
SB978-093,Clovis Police Department,https://cityofclovis.com/police/,https://web.archive.org/web/20200411064923/https://cityofclovis.com/police/,Q120751607,,Clovis,Q303794,"36.82396,-119.6943","1233 5th St, Clovis, CA 93612",Fresno County,Q271915,93612,Police
SB978-094,Clovis Unified School District Police Department,https://www.cusd.com/PoliceServices.aspx,https://web.archive.org/web/20200512064219/https://www.cusd.com/PoliceServices.aspx,Q120751608,,Clovis,Q303794,"36.82396,-119.6943","CUSD District Office, 1542 David Cook Way Clovis, CA 93611",Fresno County,Q271915,93611,School District
SB978-095,Coalinga Police Department,https://www.coalinga.com/150/Police,https://web.archive.org/web/20200806071726/http://www.coalinga.com/150/Police,Q120751609,,Coalinga,Q985263,"36.13745,-120.3625","270 N 6th Street
Coalinga , CA 93210",Fresno County,Q271915,93210,Police
SB978-096,Coast Community College District Police Department,https://www.goldenwestcollege.edu,https://web.archive.org/web/20030115123516/http://goldenwestcollege.edu/,Q120751566,,Costa Mesa,Q499196,"33.66389,-117.9024",,Orange County,Q5925,,College/University
SB978-098,Colma Police Department,https://www.colma.ca.gov/departments/police/,https://web.archive.org/web/20191108193505/https://www.colma.ca.gov/departments/police/,Q120751611,,Colma,Q987296,"37.67792,-122.4598","1199 El Camino Real
Colma, CA, 94014",San Mateo County,Q108101,94014,Police
SB978-099,Colton Police Department,https://www.coltonpd.org,https://web.archive.org/web/20020608072038/http://www.coltonpd.org/,Q120751612,,Colton,Q846606,"34.07214,-117.3232","650 N. La Cadena Drive
Colton, CA 92324",San Bernardino County,Q108053,92324,Police
SB978-100,Colusa County District Attorney,https://www.countyofcolusa.org/357/District-Attorney,https://web.archive.org/web/20200702190529/http://countyofcolusa.org/357/District-Attorney,Q120751613,,Colusa,Q2444930,"39.21428,-122.009","310 6th Street
Colusa, CA 95932",Colusa County,Q271609,95932,District Attorney
SB978-101,Colusa County Sheriff's Department,https://www.countyofcolusa.org/156/Sheriff,https://web.archive.org/web/20200804202522/http://www.countyofcolusa.org/156/Sheriff,Q120751614,,Colusa,Q2444930,"39.21428,-122.009","929 Bridge Street
Colusa, CA 95932",Colusa County,Q271609,95932,Sheriff
SB978-102,Colusa Police Department,https://cityofcolusa.com/police-department/,https://web.archive.org/web/20211230101803/https://cityofcolusa.com/police-department/,Q120751615,,Colusa,Q2444930,"39.21428,-122.009","260 6th Street
Colusa, CA 95932",Colusa County,Q271609,95932,Police
SB978-105,Concord Police Department,https://www.cityofconcord.org/183/Police,https://web.archive.org/web/20190302223824/http://www.cityofconcord.org/183/Police,Q120751616,,Concord,Q490441,"37.98165,-122.0258","1350 Galindo Street
Concord, CA 94520",Contra Costa County,Q108058,94520,Police
SB978-107,Contra Costa Community College District Police Department,https://www.4cd.edu/pd/index.html,https://web.archive.org/web/20200726200621/http://www.4cd.edu/pd/index.html,Q120751617,,Martinez,Q506439,"38.01393,-122.1349","2600 Mission Bell Drive, San Pablo, CA 94806",Contra Costa County,Q108058,94806,College/University
SB978-108,Contra Costa County District Attorney,https://www.contracosta.ca.gov/7284/District-Attorney,https://web.archive.org/web/20190730230211/http://www.contracosta.ca.gov/7284/District-Attorney,Q120751618,,Martinez,Q506439,"38.01393,-122.1349","10 Douglas Dr #130, Martinez, CA 94553",Contra Costa County,Q108058,94553,District Attorney
SB978-109,Contra Costa County Sheriff's Department/Coroner,https://www.cocosheriff.org,https://web.archive.org/web/19981212023901/http://www.cocosheriff.org/,Q120751619,,Martinez,Q506439,"38.01393,-122.1349"," 1850 Muir Road, Martinez, CA 94553",Contra Costa County,Q108058,94553,Sheriff
SB978-110,Corcoran Police Department,https://www.cityofcorcoran.com/departments/police/index.php,https://web.archive.org/web/20210125031118/http://cityofcorcoran.com/departments/police/index.php,Q120751620,,Corcoran,Q913487,"36.09805,-119.559","911 Hanna Ave, Corcoran, CA 93212",Kings County,Q156358,93212,Police
SB978-112,Corona Police Department,https://www.coronaca.gov/government/departments/police-department,https://web.archive.org/web/20170804170450/https://www.coronaca.gov/government/departments/police-department,Q108782184,,Corona,Q494707,"33.87925,-117.5748","730 Public Safety Way, Corona, CA 92878",Riverside County,Q108111,92878,Police
SB978-113,Coronado Police Department,https://www.coronado.ca.us/166/Police,https://web.archive.org/web/20220518092541/https://www.coronado.ca.us/166/Police,Q120751621,,Coronado,Q828753,"32.67619,-117.1709","700 Orange Ave
Coronado, CA 92118",San Diego County,Q108143,92118,Police
SB978-114,Costa Mesa Police Department,https://www.costamesaca.gov/government/departments-and-divisions/police,https://web.archive.org/web/20230322185003/https://www.costamesaca.gov/government/departments-and-divisions/police,Q5174847,,Costa Mesa,Q499196,"33.66389,-117.9024","99 Fair Drive
Costa Mesa, CA 92626",Orange County,Q5925,92626,Police
SB978-115,Cosumnes River College Police Department,https://police.losrios.edu,https://web.archive.org/web/20110504130710/http://police.losrios.edu/,Q120751622,Los Rios Community College District Police Department,Sacramento,Q18013,"38.57944,-121.4908","Operations & Public Safety, 8401 Center Pkwy, Sacramento, CA 95823",Sacramento County,Q108131,95823,College/University
SB978-116,Cotati Police Department,https://www.cotaticity.org/229/Police,https://web.archive.org/web/20221014200915/https://www.cotaticity.org/229/Police,Q120751623,,Cotati,Q1650450,"38.32336,-122.7083","203 W Sierra Avenue
Cotati, CA 94931",Sonoma County,Q108067,94931,Police
SB978-117,Covina Police Department,https://covinaca.gov,https://web.archive.org/web/20100823044835/http://www.covinaca.gov/,Q120751624,,Covina,Q838782,"34.08743,-117.8899","444 N. Citrus Avenue
Covina, CA 91723",Los Angeles County,Q104994,91723,Police
SB978-118,CPSU Pomona Department of Public Safety,https://www.cpp.edu/police/index.shtml,https://web.archive.org/web/20201028141608/https://www.cpp.edu/police/index.shtml,Q120751625,,Pomona,Q486868,"34.05499,-117.75","109, 3801 W Temple Ave, Pomona, CA 91768",Los Angeles County,Q104994,91768,College/University
SB978-119,Cal Poly University Police,https://afd.calpoly.edu/police/,https://web.archive.org/web/20000830145955/http://www.afd.calpoly.edu/Police/,Q120751626,,San Luis Obispo,Q49012,"35.28579,-120.6627",,San Luis Obispo County,Q49014,,College/University
SB978-121,CSU Bakersfield University Police Department,https://www.csub.edu/bas/police/,https://web.archive.org/web/20060815225954/http://www.csub.edu/bas/police/,Q120751627,,Bakersfield,Q49256,"35.36723,-119.0189","9001 Stockdale Highway
Bakersfield, CA 93311",Kern County,Q108047,93311,College/University
SB978-122,CSU Channel Islands University Police Department,https://www.csuci.edu/publicsafety/police/,https://web.archive.org/web/20140209091347/http://www.csuci.edu/publicsafety/police/,Q120751628,,Camarillo,Q846040,"34.2234,-119.0507","33 Camarillo St, Camarillo, CA 93012",Ventura County,Q108127,93012,College/University
SB978-123,CSU Chico University Police Department,https://www.csuchico.edu/up/,https://web.archive.org/web/19970522050049/http://www.csuchico.edu/up/,Q120751629,,Chico,Q432152,"39.732,-121.842","Parking Structure II, Room 101
W 2nd And, Chestnut St, Chico, CA 95928",Butte County,Q156181,95928,College/University
SB978-124,CSU Dominguez Hills University Police and Parking,https://www.csudh.edu/dhpd/,https://web.archive.org/web/20040106154851/http://www.csudh.edu/dhpd/,Q120751630,,Carson,Q494690,"33.83161,-118.2621",,Los Angeles County,Q104994,,College/University
SB978-125,CSU East Bay University Police Department,https://www.csueastbay.edu/upd/,https://web.archive.org/web/20180916050857/http://www.csueastbay.edu/upd/,Q120751631,,Hayward,Q491114,"37.67134,-122.0856",,Alameda County,Q107146,,College/University
SB978-126,CSU Fresno University Police Department,https://adminfinance.fresnostate.edu/police/,https://web.archive.org/web/20210919211223/https://adminfinance.fresnostate.edu/police/,Q120751632,,Fresno,Q43301,"36.74084,-119.7855","2311 E Barstow Ave M/S PO 14
Fresno, CA 93740",Fresno County,Q271915,93740,College/University
SB978-127,CSU Fullerton University Police Department,https://police.fullerton.edu,https://web.archive.org/web/19990503121626/http://police.fullerton.edu/,Q120751633,,Fullerton,Q494723,"33.87033,-117.929","800 N. State College Blvd.
Fullerton, CA 92831",Orange County,Q5925,92831,College/University
SB978-128,Cal Poly Humboldt Police Department,https://police.humboldt.edu,https://web.archive.org/web/20171107033932/http://police.humboldt.edu/,Q120751344,,Arcata,Q631752,"40.86766,-124.0851","SBS Building, 1st Floor, 1 Harpst St
Arcata, CA 95521",Humboldt County,Q109651,95521,College/University
SB978-129,CSU Long Beach University Police Department,https://www.csulb.edu/university-police,https://web.archive.org/web/20170910085305/http://www.csulb.edu/university-police,Q120751634,,Long Beach,Q16739,"33.76672,-118.1924","1250 N Bellflower Blvd, Long Beach, CA 90840",Los Angeles County,Q104994,90840,College/University
SB978-130,Cal State LA Police Department,https://www.calstatela.edu/police,https://web.archive.org/web/20140805070712/http://www.calstatela.edu/police,Q120751635,,Los Angeles,Q65,"34.05357,-118.2454","5151 Paseo Rancho Castilla, Los Angeles, CA 90032",Los Angeles County,Q104994,90032,College/University
SB978-132,CSU Monterey Bay University Police Department,https://csumb.edu/police/,https://web.archive.org/web/20150401212354/https://csumb.edu/police,Q120751636,,Seaside,Q986900,"36.6039,-121.853","100 Campus Ctr, Valley Hall Suite F, Seaside, CA 93955",Monterey County,Q108072,93955,College/University
SB978-133,CSU Northridge Department of Police Services,https://www.csun.edu/police,https://web.archive.org/web/19970715064011/http://www.csun.edu/police/,Q120751637,,Northridge,Q2050326,"34.23512,-118.5338","9222 Darby Ave, Northridge, CA 91325",Los Angeles County,Q104994,91325,College/University
SB978-134,CSU Sacramento Public Safety/University Police Department,https://www.csus.edu/campus-safety/police-department/,https://web.archive.org/web/20200928062025/https://www.csus.edu/campus-safety/police-department/,Q120751638,,Sacramento,Q18013,"38.57944,-121.4908",,Sacramento County,Q108131,,College/University
SB978-135,CSU San Bernardino University Police Department,https://www.csusb.edu/police,https://web.archive.org/web/20170519050912/https://www.csusb.edu/police,Q120751639,,San Bernardino,Q486168,"34.12717,-117.3348","Fairview Dr, San Bernardino, CA 92407",San Bernardino County,Q108053,92407,College/University
SB978-136,San Diego State University Police Department,https://police.sdsu.edu,https://web.archive.org/web/20000511122916/http://police.sdsu.edu/,Q120751640,,San Diego,Q16552,"32.71568,-117.1617","5499 Remington Rd, San Diego, CA 92115",San Diego County,Q108143,92115,College/University
SB978-138,CSU San JosÃ© University Police Department,https://www.sjsu.edu/police/,https://web.archive.org/web/19990225080821/http://www.sjsu.edu/police/,Q120751642,,San Jose,Q16553,"37.33865,-121.8854","1 Washington Square, San Jose, CA 95112",Santa Clara County,Q110739,95112,College/University
SB978-139,CSU San Marcos University Police Department,https://www.csusm.edu,https://web.archive.org/web/19970205114239/http://www.csusm.edu/,Q120751643,,San Marcos,Q506411,"33.14115,-117.1607",,San Diego County,Q108143,,College/University
SB978-140,Sonoma State University Police and Parking Services,https://web.sonoma.edu,https://web.archive.org/web/20010427044927/http://web.sonoma.edu/,Q120751644,,Rohnert Park,Q986835,"38.34242,-122.7102",,Sonoma County,Q108067,,College/University
SB978-141,CSU Stanislaus Police Department,https://www.csustan.edu,https://web.archive.org/web/19981212024123/http://www.csustan.edu/,Q120751645,,Turlock,Q1011205,"37.49528,-120.8467",,Stanislaus County,Q108503,,College/University
SB978-142,Cuesta College Department of Public Safety,https://www.cuesta.edu,https://web.archive.org/web/20020220122658/http://www.cuesta.edu/,Q120751646,,San Luis Obispo,Q49012,"35.28579,-120.6627",,San Luis Obispo County,Q49014,,College/University
SB978-143,Culver City Police Department,https://www.culvercitypd.org,https://web.archive.org/web/20121206022713/http://www.culvercitypd.org/,Q5193723,,Culver City,Q493378,"34.02161,-118.3962",,Los Angeles County,Q104994,,Police
SB978-144,Cypress Police Department,https://www.cypressca.org,https://web.archive.org/web/20161020013139/http://www.cypressca.org/,Q120751647,,Cypress,Q685224,"33.82434,-118.0372",,Orange County,Q5925,,Police
SB978-145,Daly City Police Department,https://www.dalycity.org/,https://web.archive.org/web/19991007032914/http://dalycity.org/,Q120751648,,Daly City,Q370925,"37.69109,-122.4724",,San Mateo County,Q108101,,Police
SB978-148,Davis Police Department,https://www.cityofdavis.org,https://web.archive.org/web/20020527131822/http://www.cityofdavis.org/,Q120751649,,Davis,Q668546,"38.54669,-121.7446",,Yolo County,Q109709,,Police
SB978-150,Del Norte County Sheriff's Department,http://www.co.del-norte.ca.us,https://web.archive.org/web/20010201062300/http://co.del-norte.ca.us/,Q120751650,,Crescent City,Q166866,"41.75281,-124.2005",,Del Norte County,Q156186,,Sheriff
SB978-151,Del Rey Oaks Police Department,https://www.delreyoaks.org,https://web.archive.org/web/20050803084124/http://www.delreyoaks.org/,Q120751651,,Del Rey Oaks,Q2258788,"36.59535,-121.8404",,Monterey County,Q108072,,Police
SB978-152,Delano Police Department,http://www.cityofdelano.org,https://web.archive.org/web/20070830141625/http://www.cityofdelano.org/,Q5253156,,Delano,Q775868,"35.77046,-119.2453",,Kern County,Q108047,,Police
SB978-153,Desert Hot Springs Police Department,https://www.cityofdhs.org,https://web.archive.org/web/20060916220242/http://www.cityofdhs.org/,Q113181184,,Desert Hot Springs,Q573096,"33.96145,-116.5102",,Riverside County,Q108111,,Police
SB978-154,Dinuba Police Department,http://www.dinuba.org,https://web.archive.org/web/20010123154100/http://www.dinuba.org/,Q120751652,,Dinuba,Q986906,"36.54431,-119.3856",,Tulare County,Q109686,,Police
SB978-155,Dixon Police Department,https://www.dixonpolice.org,https://web.archive.org/web/20180727185413/http://www.dixonpolice.org/,Q120751653,,Dixon,Q986903,"38.44552,-121.8171",,Solano County,Q108083,,Police
SB978-156,Dos Palos Police Department,https://www.dospalospd.org,https://web.archive.org/web/20110315175713/http://dospalospd.org/,Q113181186,,Dos Palos,Q986878,"36.9856,-120.6278",,Merced County,Q109690,,Police
SB978-157,Downey Police Department,https://www.downeyca.org,https://web.archive.org/web/19971221152051/http://downeyca.org/,Q120751654,,Downey,Q488946,"33.94077,-118.1277",,Los Angeles County,Q104994,,Police
SB978-158,East Bay Regional Parks District Department of Public Safety,https://www.ebparks.org,https://web.archive.org/web/19981202213756/http://www.ebparks.org/,Q120751655,,Castro Valley,Q1020700,"37.69469,-122.0853",,Alameda County,Q107146,,Parks
SB978-159,East Palo Alto Police Department,https://www.cityofepa.org,https://web.archive.org/web/20110627051448/http://cityofepa.org/,Q113181189,,East Palo Alto,Q988697,"37.4732,-122.1396",,San Mateo County,Q108101,,Police
SB978-160,El Cajon Police Department,https://docs.cityofelcajon.us,https://web.archive.org/web/20230719150636/https://docs.cityofelcajon.us/,Q5350859,,El Cajon,Q369947,"32.79495,-116.959",,San Diego County,Q108143,,Police
SB978-161,El Camino Community College District Police Department,https://www.elcamino.edu,https://web.archive.org/web/20020524155716/http://www.elcamino.edu/,Q113181190,,Torrance,Q489197,"33.83707,-118.3432",,Los Angeles County,Q104994,,College/University
SB978-162,El Centro Police Department,http://www.cityofelcentro.org,https://web.archive.org/web/20010424070241/http://www.cityofelcentro.org/,Q113181192,,El Centro,Q495369,"32.79616,-115.57",,Imperial County,Q169952,,Police
SB978-163,El Cerrito Police Department,https://www.el-cerrito.org,https://web.archive.org/web/20010909050042/http://www.el-cerrito.org/,Q113181194,,El Cerrito,Q996569,"37.91563,-122.3115",,Contra Costa County,Q108058,,Police
SB978-165,El Dorado County Sheriff's Department,https://www.edcgov.us,https://web.archive.org/web/20040103051414/http://edcgov.us/,Q120751656,,South Lake Tahoe,Q983602,"38.91162,-120.0078",,El Dorado County,Q108093,,Sheriff
SB978-166,El Monte Police Department,https://www.ci.el-monte.ca.us,https://web.archive.org/web/20000817164350/http://www.ci.el-monte.ca.us/,Q120751657,,El Monte,Q595550,"34.07105,-118.0309",,Los Angeles County,Q104994,,Police
SB978-168,El Segundo Police Department,https://www.elsegundopd.org,https://web.archive.org/web/20200430071541/https://www.elsegundopd.org/,Q120751658,,El Segundo,Q983859,"33.92084,-118.416",,Los Angeles County,Q104994,,Police
SB978-169,Elk Grove Police Department,http://www.elkgrovepd.org,https://web.archive.org/web/20021224061142/http://www.elkgrovepd.org/,Q5364014,,Elk Grove,Q671314,"38.40902,-121.3651",,Sacramento County,Q108131,,Police
SB978-170,Emeryville Police Department,https://www.ci.emeryville.ca.us,https://web.archive.org/web/19981202043758/http://ci.emeryville.ca.us/,Q120751659,,Emeryville,Q499178,"37.83717,-122.3017",,Alameda County,Q107146,,Police
SB978-171,Escalon Police Department,http://www.cityofescalon.org,https://web.archive.org/web/20040711160601/http://www.cityofescalon.org/,Q120751660,,Escalon,Q3057873,"37.79676,-120.9954",,San Joaquin County,Q108499,,Police
SB978-172,Escondido Police Department,https://police.escondido.org,https://web.archive.org/web/20110430005741/http://police.escondido.org/,Q120751661,,Escondido,Q372454,"33.12354,-117.0823",,San Diego County,Q108143,,Police
SB978-173,Etna Police Department,https://www.etnaca.com,https://web.archive.org/web/20080406205129/http://www.etnaca.com/,Q120751662,,Etna,Q542603,"41.45711,-122.8928",,Siskiyou County,Q156374,,Police
SB978-174,Eureka Police Department,http://www.ci.eureka.ca.gov,https://web.archive.org/web/20051210161121/http://www.ci.eureka.ca.gov/,Q120751663,,Eureka,Q488702,"40.80327,-124.1595",,Humboldt County,Q109651,,Police
SB978-175,Exeter Police Department,https://cityofexeter.com/departments/exeter-police-department/,https://web.archive.org/web/20190816030200/https://cityofexeter.com/departments/exeter-police-department/,Q120751664,,Exeter,Q986815,"36.29779,-119.1361",,Tulare County,Q109686,,Police
SB978-177,Fairfax Police Department,https://www.townoffairfax.org,https://web.archive.org/web/20050204104059/http://www.townoffairfax.org/,Q120751352,,Fairfax,Q2108879,"37.98517,-122.5904",,Marin County,Q108117,,Police
SB978-178,Fairfield Police Department,http://www.fairfield.ca.gov,https://web.archive.org/web/20100225075051/http://www.fairfield.ca.gov/,Q98517126,,Fairfield,Q323432,"38.24924,-122.0443",,Solano County,Q108083,,Police
SB978-179,Farmersville Police Department,https://www.cityoffarmersville-ca.gov,https://web.archive.org/web/20130310032513/http://www.cityoffarmersville-ca.gov/,Q120751665,,Farmersville,Q986808,"36.29924,-119.2072",,Tulare County,Q109686,,Police
SB978-180,Ferndale Police Department,https://ci.ferndale.ca.us,https://web.archive.org/web/20040729234255/http://ci.ferndale.ca.us/,Q120751666,,Ferndale,Q3069604,"40.58029,-124.2605",,Humboldt County,Q109651,,Police
SB978-181,Firebaugh Police Department,https://firebaugh.org,https://web.archive.org/web/20120628093910/http://www.firebaugh.org/,Q120751667,,Firebaugh,Q1705364,"36.85605,-120.4551",,Fresno County,Q271915,,Police
SB978-182,Folsom Lake College Police Department,https://police.losrios.edu,https://web.archive.org/web/20110504130710/http://police.losrios.edu/,Q120751668,Los Rios Community College District Police Department,Folsom,Q984155,"38.68175,-121.1628",,Sacramento County,Q108131,,College/University
SB978-183,Folsom Police Department,https://www.folsom.ca.us,https://web.archive.org/web/19980530071725/http://www.folsom.ca.us/,Q120751669,,Folsom,Q984155,"38.68175,-121.1628",,Sacramento County,Q108131,,Police
SB978-184,Fontana Police Department,https://www.fontana.org,https://web.archive.org/web/20000416071616/http://fontana.org/,Q120751670,,Fontana,Q491128,"34.10261,-117.4358",,San Bernardino County,Q108053,,Police
SB978-187,Fort Bragg Police Department,https://city.fortbragg.com,https://web.archive.org/web/20051116183409/http://city.fortbragg.com/,Q120751671,,Fort Bragg,Q579180,"39.44672,-123.8059",,Mendocino County,Q108087,,Police
SB978-188,Fortuna Police Department,https://www.friendlyfortuna.com,https://web.archive.org/web/20081216172617/http://www.friendlyfortuna.com/,Q120751672,,Fortuna,Q509604,"40.59756,-124.1555",,Humboldt County,Q109651,,Police
SB978-189,Foster City Police Department,https://www.fostercity.org,https://web.archive.org/web/19970614021741/http://www.fostercity.org/,Q120751674,,Foster City,Q988691,"37.56114,-122.2689",,San Mateo County,Q108101,,Police
SB978-190,Fountain Valley Police Department,https://www.fountainvalley.org,https://web.archive.org/web/19971023004517/http://www.fountainvalley.org/,Q120751675,,Fountain Valley,Q838769,"33.708611,-117.956389",,Orange County,Q5925,,Police
SB978-191,Fowler Police Department,http://fowlercity.org,https://web.archive.org/web/20040409152109/http://www.fowlercity.org/,Q5476431,,Fowler,Q1705361,"36.62998,-119.6783",,Fresno County,Q271915,,Police
SB978-192,Fremont Police Department,https://www.fremontpolice.gov,https://web.archive.org/web/20200422044748/https://www.fremontpolice.gov/,Q98522093,,Fremont,Q49220,"37.55148,-121.9833",,Alameda County,Q107146,,Police
SB978-194,Fresno County Sheriff's Department,https://publicinfo.fresnosheriff.org,,Q113457288,,Fresno,Q43301,"36.74084,-119.7855",,Fresno County,Q271915,,Sheriff
SB978-195,Fresno Police Department,https://www.fresno.gov,https://web.archive.org/web/19980118185900/http://www.fresno.gov/,Q5503196,,Fresno,Q43301,"36.74084,-119.7855",,Fresno County,Q271915,,Police
SB978-197,Fullerton Police Department,http://www.fullertonpd.org,https://web.archive.org/web/20020328034923/http://www.fullertonpd.org/,Q5508299,,Fullerton,Q494723,"33.87033,-117.929",,Orange County,Q5925,,Police
SB978-198,Galt Police Department,http://www.ci.galt.ca.us,https://web.archive.org/web/19981206075748/http://www.ci.galt.ca.us/,Q120751677,,Galt,Q985262,"38.25299,-121.3008",,Sacramento County,Q108131,,Police
SB978-199,Garden Grove Police Department,https://ggcity.org/police,https://web.archive.org/web/20190406073640/https://ggcity.org/police,Q120751678,,Garden Grove,Q50054,"33.77607,-117.9361",,Orange County,Q5925,,Police
SB978-200,Gardena Police Department,http://www.gardenapd.org,https://web.archive.org/web/20000408151355/http://gardenapd.org/,Q5522429,,Gardena,Q846409,"33.88379,-118.307",,Los Angeles County,Q104994,,Police
SB978-202,Gilroy Police Department,http://www.cityofgilroy.org,https://web.archive.org/web/20120916030930/http://cityofgilroy.org/,Q120751679,,Gilroy,Q837097,"37.00441,-121.5717",,Santa Clara County,Q110739,,Police
SB978-203,Glendale Community College District Police Department,https://www.glendale.edu,https://web.archive.org/web/20020526103100/http://www2.glendale.edu/,Q120751680,,Glendale,Q485716,"34.14633,-118.2486",,Los Angeles County,Q104994,,College/University
SB978-204,Glendale Police Department,https://www.glendaleca.gov/government/departments/police-department,https://web.archive.org/web/20140520015246/http://www.glendaleca.gov/government/departments/police-department,Q120751361,,Glendale,Q485716,"34.14633,-118.2486",,Los Angeles County,Q104994,,Police
SB978-206,Glendora Police Department,https://www.cityofglendora.org,https://web.archive.org/web/20110816012229/http://cityofglendora.org/,Q120751681,,Glendora,Q851041,"34.13602,-117.8644",,Los Angeles County,Q104994,,Police
SB978-209,Glenn County Sheriff's Department/Coroner,https://www.countyofglenn.net,https://web.archive.org/web/20010223171851/http://www.countyofglenn.net/,Q120751682,,Orland,Q2679379,"39.7474,-122.1954",,Glenn County,Q271601,,Sheriff
SB978-210,Gonzales Police Department,https://gonzalesca.gov,https://web.archive.org/web/20181104015130/http://gonzalesca.gov/,Q120751683,,Gonzales,Q862689,"36.50777,-121.4434",,Monterey County,Q108072,,Police
SB978-211,Grass Valley Police Department,https://www.cityofgrassvalley.com,https://web.archive.org/web/20021024170815/http://www.cityofgrassvalley.com/,Q120751684,,Grass Valley,Q834337,"39.21926,-121.0615",,Nevada County,Q109681,,Police
SB978-212,Greenfield Police Department,https://ci.greenfield.ca.us,https://web.archive.org/web/20040324101727/http://ci.greenfield.ca.us/,Q120751685,,Greenfield,Q983596,"36.31908,-121.2418",,Monterey County,Q108072,,Police
SB978-213,Gridley Police Department,http://gridley.ca.us,https://web.archive.org/web/20011104082050/http://www.gridley.ca.us/,Q120751686,,Gridley,Q2709827,"39.3659,-121.6964",,Butte County,Q156181,,Police
SB978-214,Grover Beach Police Department,https://www.grover.org,https://web.archive.org/web/19990125095736/http://www.grover.org/,Q120751687,,Grover Beach,Q986934,"35.12137,-120.6215",,San Luis Obispo County,Q49014,,Police
SB978-215,Guadalupe Police Department,https://ci.guadalupe.ca.us,https://web.archive.org/web/20020414140809/http://www.ci.guadalupe.ca.us/,Q120751688,,Guadalupe,Q24335,"34.95934,-120.574",,Santa Barbara County,Q108106,,Police
SB978-216,Gustine Police Department,https://www.cityofgustine.com,https://web.archive.org/web/20070604121148/http://www.cityofgustine.com/,Q120751689,,Gustine,Q2295402,"37.25683,-121.0019",,Merced County,Q109690,,Police
SB978-218,Hanford Police Department,https://www.ci.hanford.ca.us/departments/police/index.php,https://web.archive.org/web/20180212091716/http://www.ci.hanford.ca.us/departments/police/index.php,Q120751690,,Hanford,Q375185,"36.32743,-119.6459",,Kings County,Q156358,,Police
SB978-219,Hawthorne Police Department,https://hawthornepolice.com,https://web.archive.org/web/20001026120820/http://www.hawthornepolice.com/,Q65045215,,Hawthorne,Q688596,"33.91822,-118.3527",,Los Angeles County,Q104994,,Police
SB978-220,Hayward Police Department,https://www.hayward-ca.gov/police-department,https://web.archive.org/web/20160323023711/http://www.hayward-ca.gov/police-department,Q120751691,,Hayward,Q491114,"37.67134,-122.0856",,Alameda County,Q107146,,Police
SB978-221,Healdsburg Police Department,https://www.ci.healdsburg.ca.us,https://web.archive.org/web/19981212023751/http://www.ci.healdsburg.ca.us/,Q120751692,,Healdsburg,Q852598,"38.61064,-122.8688",,Sonoma County,Q108067,,Police
SB978-222,Hemet Police Department,http://www.hemetca.gov,https://web.archive.org/web/20191205213327/http://www.hemetca.gov/,Q120751693,,Hemet,Q948188,"33.74937,-116.9676",,Riverside County,Q108111,,Police
SB978-223,Hercules Police Department,https://www.ci.hercules.ca.us,https://web.archive.org/web/19980110052113/http://www.ci.hercules.ca.us/,Q120751694,,Hercules,Q948140,"38.0104,-122.2654",,Contra Costa County,Q108058,,Police
SB978-224,Hermosa Beach Police Department,https://www.hermosabeach.gov,https://web.archive.org/web/20191105081939/https://www.hermosabeach.gov/,Q120751697,,Hermosa Beach,Q828712,"33.86404,-118.3953",,Los Angeles County,Q104994,,Police
SB978-226,Hillsborough Police Department,https://www.hillsborough.net,https://web.archive.org/web/19981205150422/http://hillsborough.net/,Q113181222,,Hillsborough,Q1011171,"37.57796,-122.3556",,San Mateo County,Q108101,,Police
SB978-227,Hollister Police Department,http://hollister.ca.gov,https://web.archive.org/web/19971222141046/http://hollister.ca.gov/,Q120751698,,Hollister,Q936919,"36.85254,-121.4034",,San Benito County,Q109656,,Police
SB978-229,Humboldt County Sheriff's Department,https://humboldtgov.org,https://web.archive.org/web/20140712120440/http://www.humboldtgov.org/,Q120751699,,Eureka,Q488702,"40.80327,-124.1595",,Humboldt County,Q109651,,Sheriff
SB978-231,Huntington Beach Police Department,https://www.huntingtonbeachca.gov,https://web.archive.org/web/20100124223731/http://www.huntingtonbeachca.gov/,Q120751700,,Huntington Beach,Q5917,"33.67893,-118.0016",,Orange County,Q5925,,Police
SB978-232,Huntington Park Police Department,http://hppolice.org,https://web.archive.org/web/20160517082912/http://www.hppolice.org/,Q113181223,,Huntington Park,Q851027,"33.98143,-118.2191",,Los Angeles County,Q104994,,Police
SB978-233,Huron Police Department,http://cityofhuron.com,https://web.archive.org/web/20010308192937/http://www.cityofhuron.com/,Q113181224,,Huron,Q2649652,"36.20341,-120.1035",,Fresno County,Q271915,,Police
SB978-236,Imperial Police Department,https://www.cityofimperial.org,https://web.archive.org/web/20010818013502/http://www.cityofimperial.org/,Q120751704,,Imperial,Q930766,"32.84748,-115.5695",,Imperial County,Q169952,,Police
SB978-237,Indio Police Department,https://www.indio.org,https://web.archive.org/web/19981111183609/http://www.indio.org/,Q113181225,,Indio,Q838789,"33.72213,-116.2194",,Riverside County,Q108111,,Police
SB978-238,Inglewood Police Department,https://www.cityofinglewood.org,https://web.archive.org/web/19981201202712/http://www.cityofinglewood.org/,Q6032727,,Inglewood,Q621549,"33.96178,-118.3565",,Los Angeles County,Q104994,,Police
SB978-241,Inyo County Sheriff's Department,https://www.inyocounty.us,https://web.archive.org/web/20040110021833/http://inyocounty.us/,Q120751705,,Bishop,Q852658,"37.3668,-118.3953",,Inyo County,Q109670,,Sheriff
SB978-242,Ione Police Department,https://www.ione-ca.com,https://web.archive.org/web/20010201050100/http://www.ione-ca.com/,Q113181226,,Ione,Q953598,"38.3525,-120.9333",,Amador County,Q156177,,Police
SB978-243,Irvine Police Department,https://www.cityofirvine.org,https://web.archive.org/web/20010720061025/http://www.cityofirvine.org/,Q6074367,,Irvine,Q49219,"33.6873,-117.8259",,Orange County,Q5925,,Police
SB978-245,Irwindale Police Department,https://www.irwindaleca.gov,https://web.archive.org/web/20160901003226/http://www.irwindaleca.gov/,Q113181227,,Irwindale,Q984171,"34.10514,-117.9338",,Los Angeles County,Q104994,,Police
SB978-246,Jackson Police Department,https://www.ci.jackson.ca.us,https://web.archive.org/web/19991129022621/http://ci.jackson.ca.us/,Q6117325,,Jackson,Q1966879,"38.34712,-120.7734",,Amador County,Q156177,,Police
SB978-247,Kensington Police Department,https://www.kppcsd.org,https://web.archive.org/web/20180612210601/https://www.kppcsd.org/,Q113181228,,Kensington,Q3296036,"37.91285,-122.2813",,Contra Costa County,Q108058,,Police
SB978-248,Kerman Police Department,https://cityofkerman.net,https://web.archive.org/web/20070726221810/http://www.cityofkerman.net/,Q120751706,,Kerman,Q984605,"36.72926,-120.0603",,Fresno County,Q271915,,Police
SB978-251,Kern County Sheriff's Department,https://www.kernsheriff.org,https://web.archive.org/web/20110725020034/http://kernsheriff.org/,Q6394122,,Bakersfield,Q49256,"35.36723,-119.0189",,Kern County,Q108047,,Sheriff
SB978-253,King City Police Department,http://www.kingcity.com,https://web.archive.org/web/19980115152019/http://kingcity.com/,Q120751707,,King City,Q862700,"36.21086,-121.1266",,Monterey County,Q108072,,Police
SB978-256,Kings County Sheriff's Department,https://www.countyofkings.com,https://web.archive.org/web/19981205203320/http://www.countyofkings.com/,Q120751708,,Hanford,Q375185,"36.32743,-119.6459",,Kings County,Q156358,,Sheriff
SB978-257,Kingsburg Police Department,https://www.cityofkingsburg-ca.gov,https://web.archive.org/web/20060526221955/http://www.cityofkingsburg-ca.gov/,Q23017075,,Kingsburg,Q779614,"36.51515,-119.5523",,Fresno County,Q271915,,Police
SB978-258,La Habra Police Department,https://www.lahabracity.com,https://web.archive.org/web/20001018042157/http://lahabracity.com/,Q113181230,,La Habra,Q948071,"33.93187,-117.9435",,Orange County,Q5925,,Police
SB978-259,La Mesa Police Department,https://www.cityoflamesa.us,https://web.archive.org/web/20040102031441/http://cityoflamesa.us/,Q120751709,,La Mesa,Q850929,"32.76604,-117.0244",,San Diego County,Q108143,,Police
SB978-260,La Palma Police Department,https://www.cityoflapalma.org,https://web.archive.org/web/20001204164700/http://www.cityoflapalma.org/,Q120751710,,La Palma,Q595175,"33.84847,-118.0373",,Orange County,Q5925,,Police
SB978-261,La Verne Police Department,https://www.lvpd.org,https://web.archive.org/web/20021129100933/http://lvpd.org/,Q120751711,,La Verne,Q985347,"34.113,-117.7653",,Los Angeles County,Q104994,,Police
SB978-262,Laguna Beach Police Department,https://www.lagunabeachcity.net,https://web.archive.org/web/20020726131401/http://www.lagunabeachcity.net/,Q120751712,,Laguna Beach,Q1908566,"33.54536,-117.7815",,Orange County,Q5925,,Police
SB978-264,Lake County Sheriff's Department,http://www.lakesheriff.com,https://web.archive.org/web/20010428024751/http://www.lakesheriff.com/,Q6475515,,Lakeport,Q1960647,"39.04371,-122.9152",,Lake County,Q156361,,Sheriff
SB978-266,Lakeport Police Department,https://www.cityoflakeport.com,https://web.archive.org/web/20061229073401/http://www.cityoflakeport.com/,Q120751713,,Lakeport,Q1960647,"39.04371,-122.9152",,Lake County,Q156361,,Police
SB978-268,Lassen County Sheriff's Department,http://www.lassencounty.org,https://web.archive.org/web/20001204182100/http://www.lassencounty.org/,Q120751714,,Susanville,Q629584,"40.4157,-120.6498",,Lassen County,Q156340,,Sheriff
SB978-269,Lemoore Police Department,https://lemoore.com,https://web.archive.org/web/19980208200129/http://www.lemoore.com/,Q120751715,,Lemoore,Q986940,"36.30101,-119.7864",,Kings County,Q156358,,Police
SB978-270,Lincoln Police Department,http://www.lincolnca.gov,https://web.archive.org/web/20150705204300/http://www.lincolnca.gov/,Q120751371,,Lincoln,Q966492,"38.89161,-121.2928",,Placer County,Q156353,,Police
SB978-271,Lindsay Department of Public Safety,https://www.lindsay.ca.us,https://web.archive.org/web/19981206200918/http://www.lindsay.ca.us/,Q120751716,,Lindsay,Q984167,"36.20387,-119.0893",,Tulare County,Q109686,,Police
SB978-272,Livermore Police Department,https://www.livermoreca.gov/,https://web.archive.org/web/20220519033728/https://www.livermoreca.gov/,Q98517149,,Livermore,Q138901,"37.6757,-121.7586",,Alameda County,Q107146,,Police
SB978-273,Livingston Police Department,https://livingston.govoffice2.com,https://web.archive.org/web/20090703071315/http://livingston.govoffice2.com/,Q120751717,,Livingston,Q986871,"37.38202,-120.7233",,Merced County,Q109690,,Police
SB978-274,Lodi Police Department,http://www.lodi.gov,https://web.archive.org/web/19961109164436/http://www.lodi.gov/,Q120751718,,Lodi,Q852647,"38.13018,-121.2755",,San Joaquin County,Q108499,,Police
SB978-275,Lompoc Police Department,https://www.cityoflompoc.com,https://web.archive.org/web/20010330211654/http://www.cityoflompoc.com/,Q120751719,,Lompoc,Q852704,"34.64048,-120.4579",,Santa Barbara County,Q108106,,Police
SB978-276,Long Beach Police Department,https://citydocs.longbeach.gov,,Q17035148,,Long Beach,Q16739,"33.76672,-118.1924",,Los Angeles County,Q104994,,Police
SB978-278,Los Alamitos Police Department,https://cityoflosalamitos.org,https://web.archive.org/web/20110627051913/http://cityoflosalamitos.org/,Q120751720,,Los Alamitos,Q948059,"33.80316,-118.0769",,Orange County,Q5925,,Police
SB978-279,Los Altos Police Department,https://www.losaltosca.gov,https://web.archive.org/web/20090511155409/http://www.losaltosca.gov/,Q120751721,,Los Altos,Q864124,"37.38308,-122.1142",,Santa Clara County,Q110739,,Police
SB978-280,Los Angeles City Department of Recreation and Parks,https://www.laparks.org,https://web.archive.org/web/20000823104329/http://www.laparks.org/,Q120751722,,Los Angeles,Q65,"34.05357,-118.2454",,Los Angeles County,Q104994,,Parks
SB978-281,Los Angeles County District Attorney,http://da.lacounty.gov,https://web.archive.org/web/20070626042855/http://da.lacounty.gov/,Q120751723,,Los Angeles,Q65,"34.05357,-118.2454",,Los Angeles County,Q104994,,District Attorney
SB978-282,Los Angeles County Probation Department,https://probation.lacounty.gov,https://web.archive.org/web/20071018114130/http://probation.lacounty.gov/,Q120751724,,Los Angeles,Q65,"34.05357,-118.2454",,Los Angeles County,Q104994,,Probation
SB978-283,Los Angeles County Sheriff's Department,http://pars.lasd.org,,Q3259709,,Los Angeles,Q65,"34.05357,-118.2454",,Los Angeles County,Q104994,,Sheriff
SB978-284,Los Angeles Police Department,https://lapdonline.org,https://web.archive.org/web/19981202190615/http://www.lapdonline.org/,Q214126,,Los Angeles,Q65,"34.05357,-118.2454",,Los Angeles County,Q104994,,Police
SB978-285,Los Angeles Port Police Department,https://www.portoflosangeles.org/community/los-angeles-port-police,https://web.archive.org/web/20211124004947/https://www.portoflosangeles.org/community/los-angeles-port-police,Q120751725,,Los Angeles,Q65,"34.05357,-118.2454",,Los Angeles County,Q104994,,Port
SB978-287,Los Angeles School Police Department,https://achieve.lausd.net,https://web.archive.org/web/20160404060722/http://achieve.lausd.net/,Q6682328,,Los Angeles,Q65,"34.05357,-118.2454",,Los Angeles County,Q104994,,School District
SB978-289,Los Angeles World Airports Police Department,https://www.lawa.org,https://web.archive.org/web/19981203085344/http://www.lawa.org/,Q120751727,,Los Angeles,Q65,"34.05357,-118.2454",,Los Angeles County,Q104994,,Airport
SB978-290,Los Banos Police Department,http://www.losbanos.org,https://web.archive.org/web/19981206120724/http://www.losbanos.org/,Q120751728,,Los Banos,Q590932,"37.06138,-120.8476",,Merced County,Q109690,,Police
SB978-291,Los Gatos/Monte Sereno Police Department,https://www.losgatosca.gov,https://web.archive.org/web/20040123095746/http://www.losgatosca.gov/,Q6682757,,Los Gatos,Q747509,"37.22131,-121.9793",,Santa Clara County,Q110739,,Police
SB978-292,Los Rios Community College District Police Department,https://police.losrios.edu,https://web.archive.org/web/20110504130710/http://police.losrios.edu/,Q120751729,,Sacramento,Q18013,"38.57944,-121.4908",,Sacramento County,Q108131,,College/University
SB978-295,Madera County Sheriff's Department,https://www.maderacounty.com,https://web.archive.org/web/20001019062947/http://www.maderacounty.com/,Q120751730,,Madera,Q851000,"36.96205,-120.064",,Madera County,Q109661,,Sheriff
SB978-296,Madera Police Department,https://www.madera.gov,https://web.archive.org/web/20190324022825/https://www.madera.gov/,Q23017172,,Madera,Q851000,"36.96205,-120.064",,Madera County,Q109661,,Police
SB978-297,Mammoth Lakes Police Department,https://www.townofmammothlakes.ca.gov,https://web.archive.org/web/20140427000350/http://www.townofmammothlakes.ca.gov/,Q120751731,,Mammoth Lakes,Q983604,"37.64878,-118.9779",,Mono County,Q156366,,Police
SB978-298,Manhattan Beach Police Department,https://www.citymb.info,https://web.archive.org/web/20020207223041/http://www.citymb.info/,Q120751732,,Manhattan Beach,Q568610,"33.8872,-118.4109",,Los Angeles County,Q104994,,Police
SB978-299,Manteca Police Department,https://www.ci.manteca.ca.us,https://web.archive.org/web/19981111183557/http://ci.manteca.ca.us/,Q120751733,,Manteca,Q986109,"37.79917,-121.2322",,San Joaquin County,Q108499,,Police
SB978-300,Marin Community College District Police Department,http://police.marin.edu,https://web.archive.org/web/20170215214444/http://police.marin.edu/,Q120751734,,Kentfield,Q2450147,"37.95616,-122.5481",,Marin County,Q108117,,College/University
SB978-303,Marin County Sheriff's Department,https://www.marinsheriff.org,https://web.archive.org/web/20010413222732/http://www.marinsheriff.org/,Q105085080,,San Rafael,Q631915,"37.97461,-122.5329",,Marin County,Q108117,,Sheriff
SB978-305,Marina Department of Public Safety,https://www.cityofmarina.org,https://web.archive.org/web/20110627051933/http://cityofmarina.org/,Q120751735,,Marina,Q985077,"36.68162,-121.8023",,Monterey County,Q108072,,Police
SB978-308,Martinez Police Department,https://www.cityofmartinez.org,https://web.archive.org/web/19981202082247/http://www.cityofmartinez.org/,Q120751736,,Martinez,Q506439,"38.01393,-122.1349",,Contra Costa County,Q108058,,Police
SB978-309,Marysville Police Department,https://www.marysvillepd.org,https://web.archive.org/web/20080501162015/http://www.marysvillepd.org/,Q120751737,,Marysville,Q950966,"39.14497,-121.5872",,Yuba County,Q196014,,Police
SB978-310,McFarland Police Department,http://www.mcfarlandcity.org,https://web.archive.org/web/20040218025559/http://www.mcfarlandcity.org/,Q120751739,,McFarland,Q977395,"35.67746,-119.228",,Kern County,Q108047,,Police
SB978-313,Mendocino County Sheriff's Department,https://mendocinosheriff.com,https://web.archive.org/web/20070925052150/http://www.mendocinosheriff.com/,Q120751740,,Ukiah,Q837105,"39.15093,-123.2079",,Mendocino County,Q108087,,Sheriff
SB978-314,Mendota Police Department,https://www.ci.mendota.ca.us,https://web.archive.org/web/20040405123414/http://www.ci.mendota.ca.us/,Q120751741,,Mendota,Q984601,"36.75406,-120.3788",,Fresno County,Q271915,,Police
SB978-315,Menifee Police Department,https://menifeepolice.org,https://web.archive.org/web/20200511171258/https://menifeepolice.org/,Q120751742,,Menifee,Q3476276,"33.685,-117.1539",,Riverside County,Q108111,,Police
SB978-316,Menlo Park Police Department,https://www.menlopark.org,https://web.archive.org/web/20000510152545/http://www.menlopark.org/,Q120751743,,Menlo Park,Q74195,"37.4555,-122.1788",,San Mateo County,Q108101,,Police
SB978-317,Merced Community College Police Department,http://www.mccd.edu,https://web.archive.org/web/20021026193731/http://www.mccd.edu/,Q120753302,,Merced,Q499189,"37.30152,-120.4869",,Merced County,Q109690,,College/University
SB978-319,Merced County Sheriff's Department,https://www.co.merced.ca.us,https://web.archive.org/web/19980109175324/http://co.merced.ca.us/,Q120751745,,Merced,Q499189,"37.30152,-120.4869",,Merced County,Q109690,,Sheriff
SB978-320,Merced Police Department,https://www.cityofmerced.org,https://web.archive.org/web/20030205041859/http://www.cityofmerced.org/,Q120751746,,Merced,Q499189,"37.30152,-120.4869",,Merced County,Q109690,,Police
SB978-321,Mill Valley Police Department,https://www.cityofmillvalley.org,https://web.archive.org/web/19990427111625/http://www.cityofmillvalley.org/,Q120751747,,Mill Valley,Q846413,"37.90774,-122.5482",,Marin County,Q108117,,Police
SB978-323,Milpitas Police Department,https://www.milpitas.gov/,https://web.archive.org/web/20220423025100/https://www.milpitas.gov/,Q98517141,,Milpitas,Q927510,"37.43286,-121.897",,Santa Clara County,Q110739,,Police
SB978-324,MiraCosta Community College District Police Department,https://miracosta.edu,https://web.archive.org/web/20020524042016/http://www.miracosta.edu/,Q120751748,,Oceanside,Q488924,"33.19715,-117.3806",,San Diego County,Q108143,,College/University
SB978-325,Modesto Police Department,https://www.modestogov.com,https://web.archive.org/web/20010419113932/http://www.modestogov.com/,Q23017246,,Modesto,Q204561,"37.64155,-121.0035",,Stanislaus County,Q108503,,Police
SB978-326,Modoc County Sheriff's Department,https://www.modocsheriff.us,https://web.archive.org/web/20081229223528/http://www.modocsheriff.us/,Q120751749,,Alturas,Q446281,"41.49432,-120.5426",,Modoc County,Q109695,,Sheriff
SB978-328,Mono County Sheriff's Department,https://monosheriff.org,https://web.archive.org/web/20020531094142/http://www.monosheriff.org/,Q120751750,,Bridgeport,Q913753,"38.25591,-119.2276",,Mono County,Q156366,,Sheriff
SB978-329,Monrovia Police Department,https://www.cityofmonrovia.org,https://web.archive.org/web/20041209120513/http://www.cityofmonrovia.org/,Q120751751,,Monrovia,Q926988,"34.14783,-117.9988",,Los Angeles County,Q104994,,Police
SB978-330,Montclair Police Department,https://www.cityofmontclair.org,https://web.archive.org/web/20080807154700/http://www.cityofmontclair.org/,Q120751756,,Montclair,Q853691,"34.07401,-117.6912",,San Bernardino County,Q108053,,Police
SB978-331,Montebello Police Department,https://www.montebelloca.gov/,https://web.archive.org/web/20220924020125/https://www.montebelloca.gov/,Q120751581,,Montebello,Q664503,"34.01958,-118.1164",,Los Angeles County,Q104994,,Police
SB978-334,Monterey County Sheriff's Department,https://montereysheriff.org,https://web.archive.org/web/20150712133824/https://www.montereysheriff.org/,Q120751758,,Monterey,Q487315,"36.5982,-121.8965",,Monterey County,Q108072,,Sheriff
SB978-335,Monterey Park Police Department,http://www.montereypark.ca.gov,https://web.archive.org/web/20130416051303/http://www.montereypark.ca.gov,Q120751759,,Monterey Park,Q927213,"34.0598,-118.1257",,Los Angeles County,Q104994,,Police
SB978-337,Monterey Police Department,https://www.monterey.org,https://web.archive.org/web/19961111104240/http://www.monterey.org/,Q120751760,,Monterey,Q487315,"36.5982,-121.8965",,Monterey County,Q108072,,Police
SB978-339,Moraga Police Department,https://police.moraga.ca.us,https://web.archive.org/web/20091222091726/http://police.moraga.ca.us/,Q120751761,,Moraga,Q594122,"37.85356,-122.1277",,Contra Costa County,Q108058,,Police
SB978-340,Morgan Hill Police Department,https://morgan-hill.ca.gov,https://web.archive.org/web/19981205170655/http://www.morgan-hill.ca.gov/,Q120751762,,Morgan Hill,Q609084,"37.12608,-121.6619",,Santa Clara County,Q110739,,Police
SB978-341,Morro Bay Police Department,https://www.morro-bay.ca.us,https://web.archive.org/web/20000816204831/http://www.morro-bay.ca.us/,Q120751763,,Morro Bay,Q605491,"35.36692,-120.8468",,San Luis Obispo County,Q49014,,Police
SB978-342,Mountain View Police Department,https://mvpdpublicrecords.org,https://web.archive.org/web/20201016164716/https://mvpdpublicrecords.org/,Q98517133,,Mountain View,Q486860,"37.38967,-122.0816",,Santa Clara County,Q110739,,Police
SB978-345,Mt. Shasta Police Department,https://mtshastaca.gov,https://web.archive.org/web/20140202092559/http://mtshastaca.gov/,Q120751764,,Mount Shasta,Q987106,"41.314444,-122.311389",,Siskiyou County,Q156374,,Police
SB978-346,Murrieta Police Department,https://www.murrietaca.gov,https://web.archive.org/web/20160626190214/http://www.murrietaca.gov/,Q120751765,,Murrieta,Q838787,"33.55843,-117.2118",,Riverside County,Q108111,,Police
SB978-348,Napa County Sheriff's Department,https://www.countyofnapa.org,https://web.archive.org/web/20090804185625/http://www.countyofnapa.org/,Q120751766,,Napa,Q60537,"38.29911,-122.2854",,Napa County,Q108137,,Sheriff
SB978-349,Napa Police Department,https://www.cityofnapa.org,https://web.archive.org/web/19980112090319/http://www.cityofnapa.org/,Q120751767,,Napa,Q60537,"38.29911,-122.2854",,Napa County,Q108137,,Police
SB978-350,Napa Valley College Police Department,https://www.napavalley.edu,https://web.archive.org/web/20020718115104/http://www.napavalley.edu/,Q120751769,,Napa,Q60537,"38.29911,-122.2854",,Napa County,Q108137,,College/University
SB978-351,National City Police Department,https://www.nationalcityca.gov,https://web.archive.org/web/20080922135520/http://www.nationalcityca.gov/,Q113181252,,National City,Q430316,"32.67218,-117.1056",,San Diego County,Q108143,,Police
SB978-354,Nevada County Sheriff's Department,https://www.mynevadacounty.com,https://web.archive.org/web/20010929203155/http://mynevadacounty.com/,Q120751386,,Nevada City,Q667268,"39.26274,-121.0192",,Nevada County,Q109681,,Sheriff
SB978-355,Newark Police Department,https://www.newark.org,https://web.archive.org/web/19990125101600/http://www.newark.org/,Q7016725,,Newark,Q850812,"37.53682,-122.0303",,Alameda County,Q107146,,Police
SB978-356,Newman Police Department,http://www.cityofnewman.com,https://web.archive.org/web/19981206220516/http://www.cityofnewman.com/,Q120751770,,Newman,Q2836799,"37.31733,-121.022",,Stanislaus County,Q108503,,Police
SB978-357,Newport Beach Police Department,http://www.nbpd.org,https://web.archive.org/web/19991013102816/http://nbpd.org/,Q95983033,,Newport Beach,Q268873,"33.61703,-117.9303",,Orange County,Q5925,,Police
SB978-358,Novato Police Department,https://www.novato.org,https://web.archive.org/web/19981206104718/http://www.novato.org/,Q113181253,,Novato,Q851004,"38.10609,-122.5679",,Marin County,Q108117,,Police
SB978-359,Oakdale Police Department,https://www.oakdalegov.com,https://web.archive.org/web/20140404022403/http://www.oakdalegov.com/,Q120751771,,Oakdale,Q984607,"37.76841,-120.8482",,Stanislaus County,Q108503,,Police
SB978-361,Oakland Police Department,https://www.oaklandca.gov,https://web.archive.org/web/20180427023914/http://www.oaklandca.gov/,Q7074042,,Oakland,Q17042,"37.80508,-122.2731",,Alameda County,Q107146,,Police
SB978-363,Oakley Police Department,https://www.ci.oakley.ca.us,https://web.archive.org/web/19991012023626/http://ci.oakley.ca.us/,Q120751583,,Oakley,Q950912,"37.99638,-121.713",,Contra Costa County,Q108058,,Police
SB978-365,Oceanside Police Department,https://www.ci.oceanside.ca.us,https://web.archive.org/web/19980419193910/http://ci.oceanside.ca.us/,Q113181258,,Oceanside,Q488924,"33.19715,-117.3806",,San Diego County,Q108143,,Police
SB978-367,Ohlone Community College District Police Department,https://www.ohlone.edu,https://web.archive.org/web/20020816105839/http://www.ohlone.edu/,Q120751773,,Fremont,Q49220,"37.55148,-121.9833",,Alameda County,Q107146,,College/University
SB978-368,Ontario Police Department,https://cityofontario.app.box.com,,Q113181261,,Ontario,Q488134,"34.06457,-117.6481",,San Bernardino County,Q108053,,Police
SB978-370,Orange County District Attorney,http://orangecountyda.org,https://web.archive.org/web/20130802151836/http://orangecountyda.org,Q113181263,,Santa Ana,Q49244,"33.74958,-117.8745",,Orange County,Q5925,,District Attorney
SB978-373,Orange County Sheriff's Department/Coroner,https://www.ocsheriff.gov,https://web.archive.org/web/20201101032449/https://www.ocsheriff.gov/,Q120751774,,Santa Ana,Q49244,"33.74958,-117.8745",,Orange County,Q5925,,Sheriff
SB978-374,Orange Cove Police Department,http://cityoforangecove.com,https://web.archive.org/web/20031023010535/http://cityoforangecove.com/,Q120751775,,Orange Cove,Q83845,"36.62359,-119.3049",,Fresno County,Q271915,,Police
SB978-375,Orange Police Department,https://citydocs.cityoforange.org,https://web.archive.org/web/20010630232910/http://citydocs.cityoforange.org/,Q120751776,,Orange,Q491350,"33.78787,-117.8507",,Orange County,Q5925,,Police
SB978-376,Orland Police Department,http://cityoforland.com,https://web.archive.org/web/20091005002153/http://www.cityoforland.com/,Q120751777,,Orland,Q2679379,"39.7474,-122.1954",,Glenn County,Q271601,,Police
SB978-377,Oroville Police Department,https://www.cityoforoville.org,https://web.archive.org/web/20020806132319/http://www.cityoforoville.org/,Q120751778,,Oroville,Q850972,"39.51388,-121.5561",,Butte County,Q156181,,Police
SB978-378,Oxnard Police Department,https://sites.google.com,https://web.archive.org/web/20071225151834/http://sites.google.com/,Q120751779,,Oxnard,Q209338,"34.20034,-119.1801",,Ventura County,Q108127,,Police
SB978-379,Pacific Grove Police Department,https://www.cityofpacificgrove.org,https://web.archive.org/web/20140517042733/http://cityofpacificgrove.org/,Q120751780,,Pacific Grove,Q117514,"36.61933,-121.9186",,Monterey County,Q108072,,Police
SB978-381,Pacifica Police Department,https://www.cityofpacifica.org,https://web.archive.org/web/20070301053635/http://www.cityofpacifica.org/,Q120751781,,Pacifica,Q925925,"37.63527,-122.492",,San Mateo County,Q108101,,Police
SB978-382,Palm Springs Police Department,https://www.palmspringsca.gov,https://web.archive.org/web/20081111141308/http://www.palmspringsca.gov/,Q30668276,,Palm Springs,Q488004,"33.82321,-116.512",,Riverside County,Q108111,,Police
SB978-383,Palo Alto Police Department,https://www.cityofpaloalto.org,https://web.archive.org/web/20021002045829/http://www.cityofpaloalto.org/,Q120751391,,Palo Alto,Q47265,"37.44466,-122.1608",,Santa Clara County,Q110739,,Police
SB978-385,Palos Verdes Estates Police Department,https://www.pvestates.org,https://web.archive.org/web/20100815211728/http://www.pvestates.org/,Q120751782,,Palos Verdes Estates,Q948149,"33.786944,-118.396667",,Los Angeles County,Q104994,,Police
SB978-386,Paradise Police Department,https://www.townofparadise.com,https://web.archive.org/web/20000110195412/http://www.townofparadise.com/,Q120751783,,Paradise,Q387183,"39.75077,-121.6077",,Butte County,Q156181,,Police
SB978-388,Pasadena City College District Police Department,https://pasadena.edu,https://web.archive.org/web/20020602124107/http://www.pasadena.edu/,Q120751784,,Pasadena,Q485176,"34.14745,-118.1443",,Los Angeles County,Q104994,,College/University
SB978-389,Pasadena Police Department,https://www.cityofpasadena.net,https://web.archive.org/web/20010518103603/http://www.cityofpasadena.net/,Q7141557,,Pasadena,Q485176,"34.14745,-118.1443",,Los Angeles County,Q104994,,Police
SB978-390,Paso Robles Police Department,https://www.prcity.com,https://web.archive.org/web/20020928073158/http://www.prcity.com/,Q120751785,,Paso Robles,Q586528,"35.62541,-120.6913",,San Luis Obispo County,Q49014,,Police
SB978-392,Petaluma Police Department,https://cityofpetaluma.org,https://web.archive.org/web/20110627052025/http://www.cityofpetaluma.org/,Q120751786,,Petaluma,Q720087,"38.23247,-122.6444",,Sonoma County,Q108067,,Police
SB978-393,Piedmont Police Department,https://www.ci.piedmont.ca.us,https://web.archive.org/web/20010609133145/http://www.ci.piedmont.ca.us/,Q120751787,,Piedmont,Q570301,"37.82475,-122.2323",,Alameda County,Q107146,,Police
SB978-394,Pinole Police Department,http://pinoleca.hosted.civiclive.com,https://web.archive.org/web/20191121042915/http://pinoleca.hosted.civiclive.com/,Q120751788,,Pinole,Q629763,"38.00478,-122.2907",,Contra Costa County,Q108058,,Police
SB978-395,Pismo Beach Police Department,https://accesspismo.pismobeach.org,,Q120751789,,Pismo Beach,Q570287,"35.15666,-120.6678",,San Luis Obispo County,Q49014,,Police
SB978-396,Pittsburg Police Department,http://www.ci.pittsburg.ca.us,https://web.archive.org/web/19981202204133/http://www.ci.pittsburg.ca.us/,Q120751791,,Pittsburg,Q281248,"38.01946,-121.8885",,Contra Costa County,Q108058,,Police
SB978-397,Placentia Police Department,http://placentia.org,https://web.archive.org/web/19971221100030/http://placentia.org/,Q120751792,,Placentia,Q864130,"33.87121,-117.8602",,Orange County,Q5925,,Police
SB978-398,Placer County District Attorney,https://www.placer.ca.gov,https://web.archive.org/web/19961220000612/http://www.placer.ca.gov/,Q120751793,,Roseville,Q491340,"38.74897,-121.284",,Placer County,Q156353,,District Attorney
SB978-400,Placer County Sheriff's Department,https://www.placer.ca.gov,https://web.archive.org/web/19961220000612/http://www.placer.ca.gov/,Q120751794,,Roseville,Q491340,"38.74897,-121.284",,Placer County,Q156353,,Sheriff
SB978-401,Placerville Police Department,https://www.cityofplacerville.org,https://web.archive.org/web/20060225170315/http://www.cityofplacerville.org/,Q120751795,,Placerville,Q927485,"38.72791,-120.8033",,El Dorado County,Q108093,,Police
SB978-402,Pleasant Hill Police Department,http://www.ci.pleasant-hill.ca.us,https://web.archive.org/web/19981111190221/http://www.ci.pleasant-hill.ca.us/,Q120751796,,Pleasant Hill,Q950926,"37.94799,-122.0627",,Contra Costa County,Q108058,,Police
SB978-403,Pleasanton Police Services,https://www.cityofpleasantonca.gov,https://web.archive.org/web/20120309002619/http://www.cityofpleasantonca.gov/,Q120751797,,Pleasanton,Q747444,"37.65822,-121.8771",,Alameda County,Q107146,,Police
SB978-405,Plumas County Sheriff's Department,https://plumascounty.us,https://web.archive.org/web/20101009141010/http://www.plumascounty.us/,Q120751798,,Quincy,Q1979185,"39.93673,-120.9481",,Plumas County,Q156342,,Sheriff
SB978-406,Pomona Police Department,https://www.pomonaca.gov,https://web.archive.org/web/20210331221505/https://www.pomonaca.gov/,Q120751799,,Pomona,Q486868,"34.05499,-117.75",,Los Angeles County,Q104994,,Police
SB978-408,Port Hueneme Police Department,https://www.ci.port-hueneme.ca.us,https://web.archive.org/web/20010902203028/http://www.ci.port-hueneme.ca.us/,Q120751800,,Port Hueneme,Q983853,"34.15016,-119.1956",,Ventura County,Q108127,,Police
SB978-410,Porterville Police Department,http://www.ci.porterville.ca.us,https://web.archive.org/web/20010616215509/http://www.ci.porterville.ca.us/,Q120751801,,Porterville,Q927173,"36.07096,-119.0162",,Tulare County,Q109686,,Police
SB978-411,Red Bluff Police Department,http://www.rbpd.org,https://web.archive.org/web/20000817022947/http://www.rbpd.org/,Q120751802,,Red Bluff,Q546468,"40.17806,-122.2354",,Tehama County,Q109705,,Police
SB978-412,Redding Police Department,https://www.cityofredding.org,https://web.archive.org/web/20130914200634/http://cityofredding.org,Q120751803,,Redding,Q495361,"40.5876,-122.3925",,Shasta County,Q156350,,Police
SB978-413,Redlands Police Department,https://www.cityofredlands.org,https://web.archive.org/web/20020921183555/http://cityofredlands.org/,Q120751804,,Redlands,Q753830,"34.05538,-117.1826",,San Bernardino County,Q108053,,Police
SB978-414,Redondo Beach Police Department,https://www.redondo.org,https://web.archive.org/web/19970403215657/http://www.redondo.org/,Q120751805,,Redondo Beach,Q840678,"33.84468,-118.3876",,Los Angeles County,Q104994,,Police
SB978-415,Redwood City Police Department,https://www.redwoodcity.org,https://web.archive.org/web/19981202220632/http://www.redwoodcity.org/,Q7306487,,Redwood City,Q505549,"37.4845,-122.2277",,San Mateo County,Q108101,,Police
SB978-416,Reedley Police Department,https://reedley.ca.gov,https://web.archive.org/web/20080820011116/http://www.reedley.ca.gov/,Q120751807,,Reedley,Q984609,"36.5946,-119.4529",,Fresno County,Q271915,,Police
SB978-417,Rialto Police Department,https://rialtopolice.com,https://web.archive.org/web/20200318133810/https://rialtopolice.com/,Q7322140,,Rialto,Q289661,"34.10032,-117.3728",,San Bernardino County,Q108053,,Police
SB978-418,Richmond Police Department,https://www.ci.richmond.ca.us,https://web.archive.org/web/19980110071453/http://www.ci.richmond.ca.us/,Q7330944,,Richmond,Q495377,"37.93784,-122.3429",,Contra Costa County,Q108058,,Police
SB978-419,Ridgecrest Police Department,https://www.ridgecrest-ca.gov,https://web.archive.org/web/20081208070516/http://www.ridgecrest-ca.gov/,Q7332728,,Ridgecrest,Q862704,"35.62248,-117.6681",,Kern County,Q108047,,Police
SB978-420,Rio Dell Police Department,https://cityofriodell.ca.gov,https://web.archive.org/web/20181101055651/http://cityofriodell.ca.gov/,Q120751808,,Rio Dell,Q2544177,"40.49871,-124.1061",,Humboldt County,Q109651,,Police
SB978-422,Ripon Police Department,https://riponpd.org,https://web.archive.org/web/20020228022253/http://www.riponpd.org/,Q120751810,,Ripon,Q986098,"37.74161,-121.1355",,San Joaquin County,Q108499,,Police
SB978-423,Riverside Community College District Police Department,https://www.rccd.edu,https://web.archive.org/web/20140211003004/http://rccd.edu/,Q120751812,,Riverside,Q49243,"33.98171,-117.374",,Riverside County,Q108111,,College/University
SB978-426,Riverside County Sheriff's Department,https://www.riversidesheriff.org,https://web.archive.org/web/20040612185635/http://www.riversidesheriff.org/,Q7338470,,Riverside,Q49243,"33.98171,-117.374",,Riverside County,Q108111,,Sheriff
SB978-427,Riverside Police Department,https://riversideca.gov,https://web.archive.org/web/20040207122301/http://www.riversideca.gov/,Q7338578,,Riverside,Q49243,"33.98171,-117.374",,Riverside County,Q108111,,Police
SB978-428,Rocklin Police Department,https://www.rocklin.ca.us,https://web.archive.org/web/20060712094149/http://www.rocklin.ca.us/,Q120751813,,Rocklin,Q984599,"38.79016,-121.2346",,Placer County,Q156353,,Police
SB978-429,Rohnert Park Department of Public Safety,https://www.rpcity.org,https://web.archive.org/web/20010301194052/http://www.rpcity.org/,Q120751814,,Rohnert Park,Q986835,"38.34242,-122.7102",,Sonoma County,Q108067,,Police
SB978-430,Roseville Police Department,http://www.roseville.ca.us,https://web.archive.org/web/19980110011819/http://roseville.ca.us/,Q25345857,,Roseville,Q491340,"38.74897,-121.284",,Placer County,Q156353,,Police
SB978-431,Ross Police Department,https://www.townofross.org,https://web.archive.org/web/20000918103920/http://www.townofross.org/,Q120751815,,Ross,Q2747056,"37.96284,-122.556",,Marin County,Q108117,,Police
SB978-436,Sacramento County Sheriff's Department,https://www.sacsheriff.com,https://web.archive.org/web/19980205155656/http://sacsheriff.com/,Q7396971,,Sacramento,Q18013,"38.57944,-121.4908",,Sacramento County,Q108131,,Sheriff
SB978-437,Sacramento Police Department,https://www.cityofsacramento.org,https://web.archive.org/web/20000301060707/http://www.cityofsacramento.org/,Q7397012,,Sacramento,Q18013,"38.57944,-121.4908",,Sacramento County,Q108131,,Police
SB978-440,Saint Helena Police Department,https://www.cityofsthelena.org,https://web.archive.org/web/20121203050558/http://cityofsthelena.org/,Q120751816,,St. Helena,Q125733,"38.505278,-122.470278",,Napa County,Q108137,,Police
SB978-443,San Benito County Sheriff's Department,http://sbso.us,https://web.archive.org/web/20140107182541/http://sbso.us/,Q120751817,,Hollister,Q936919,"36.85254,-121.4034",,San Benito County,Q109656,,Sheriff
SB978-446,San Bernardino County Sheriff-Coroner,https://wp.sbcounty.gov,https://web.archive.org/web/20200721132258/https://wp.sbcounty.gov/,Q120751818,,San Bernardino,Q486168,"34.12717,-117.3348",,San Bernardino County,Q108053,,Sheriff
SB978-447,San Bernardino Police Department,http://www.sbcity.org,https://web.archive.org/web/20080908004519/http://www.sbcity.org/,Q120751819,,San Bernardino,Q486168,"34.12717,-117.3348",,San Bernardino County,Q108053,,Police
SB978-449,San Bruno Police Department,https://www.sanbruno.ca.gov,https://web.archive.org/web/20040109210813/http://sanbruno.ca.gov/,Q98517396,,San Bruno,Q667738,"37.62517,-122.4143",,San Mateo County,Q108101,,Police
SB978-456,San Diego County Sheriff's Department,https://www.sdsheriff.gov,https://web.archive.org/web/20210316015957/https://www.sdsheriff.gov/,Q7413633,,San Diego,Q16552,"32.71568,-117.1617",,San Diego County,Q108143,,Sheriff
SB978-457,San Diego Harbor Police Department,https://www.portofsandiego.org,https://web.archive.org/web/20020604175901/http://portofsandiego.org/,Q120751820,,San Diego,Q16552,"32.71568,-117.1617",,San Diego County,Q108143,,Port
SB978-458,San Diego Police Department,https://www.sandiego.gov,https://web.archive.org/web/20010302061204/http://www.sandiego.gov/,Q6580207,,San Diego,Q16552,"32.71568,-117.1617",,San Diego County,Q108143,,Police
SB978-460,San Fernando Police Department,https://ci.san-fernando.ca.us,https://web.archive.org/web/20000620031520/http://www.ci.san-fernando.ca.us/,Q113181297,,San Fernando,Q846406,"34.28406,-118.4384",,Los Angeles County,Q104994,,Police
SB978-463,San Francisco County Sheriff's Department,https://www.sfsheriff.com,https://web.archive.org/web/20031228164628/http://www.sfsheriff.com/,Q7414111,,San Francisco,Q62,"37.7557,-122.4428",,San Francisco,Q62,,Sheriff
SB978-465,San Francisco Police Department,https://www.sanfranciscopolice.org,https://web.archive.org/web/20110428132920/http://sanfranciscopolice.org/,Q1320247,,San Francisco,Q62,"37.7557,-122.4428",,San Francisco,Q62,,Police
SB978-466,San Gabriel Police Department,https://www.sangabrielcity.com,https://web.archive.org/web/20000520042533/http://www.sangabrielcity.com/,Q120751821,,San Gabriel,Q953437,"34.09723,-118.1084",,Los Angeles County,Q104994,,Police
SB978-469,San Joaquin County Probation Department,https://www.sjgov.org,https://web.archive.org/web/20040410071520/http://www.sjgov.org/,Q113181302,,Stockton,Q49240,"37.95373,-121.2905",,San Joaquin County,Q108499,,Probation
SB978-470,San Joaquin County Sheriff's Department,https://www.sjsheriff.org,https://web.archive.org/web/20080606010415/http://www.sjsheriff.org/,Q7414388,,French Camp,Q600331,"37.88484,-121.2712",,San Joaquin County,Q108499,,Sheriff
SB978-471,San Joaquin Delta College Police Department,https://www.deltacollege.edu,https://web.archive.org/web/20020214024518/http://www.deltacollege.edu/,Q120751822,,Stockton,Q49240,"37.95373,-121.2905",,San Joaquin County,Q108499,,College/University
SB978-472,San Jose Police Department,https://www.sjpd.org,https://web.archive.org/web/19961229074047/http://www.sjpd.org/,Q7414475,,San Jose,Q16553,"37.33865,-121.8854",,Santa Clara County,Q110739,,Police
SB978-475,San Leandro Police Department,https://www.sanleandro.org,https://web.archive.org/web/20100404114155/http://www.sanleandro.org/,Q120751823,,San Leandro,Q851034,"37.72832,-122.1586",,Alameda County,Q107146,,Police
SB978-477,San Luis Obispo County Sheriff's Department,http://www.slosheriff.org,https://web.archive.org/web/20000914061252/http://www.slosheriff.org/,Q120751824,,San Luis Obispo,Q49012,"35.28579,-120.6627",,San Luis Obispo County,Q49014,,Sheriff
SB978-478,San Luis Obispo Police Department,https://www.slocity.org,https://web.archive.org/web/20000823185516/http://www.slocity.org/,Q120751826,,San Luis Obispo,Q49012,"35.28579,-120.6627",,San Luis Obispo County,Q49014,,Police
SB978-479,San Marino Police Department,https://www.cityofsanmarino.org,https://web.archive.org/web/20010517204543/http://www.cityofsanmarino.org/,Q17509441,,San Marino,Q850869,"34.12215,-118.105",,Los Angeles County,Q104994,,Police
SB978-481,San Mateo County Sheriff's Office,https://www.smcsheriff.com,https://web.archive.org/web/19980523065628/http://www.smcsheriff.com/,Q120122745,,Redwood City,Q505549,"37.4845,-122.2277",,San Mateo County,Q108101,,Sheriff
SB978-482,San Mateo Police Department,https://www.cityofsanmateo.org,https://web.archive.org/web/20010404093841/http://www.cityofsanmateo.org/,Q98517245,,San Mateo,Q169943,"37.54704,-122.3148",,San Mateo County,Q108101,,Police
SB978-483,San Pablo Police Department,https://www.sanpabloca.gov,https://web.archive.org/web/20110126003708/http://sanpabloca.gov/,Q113181305,,San Pablo,Q983863,"37.96033,-122.3424",,Contra Costa County,Q108058,,Police
SB978-484,San Rafael Police Department,https://www.srpd.org,https://web.archive.org/web/19991013012957/http://srpd.org/,Q113181306,,San Rafael,Q631915,"37.97461,-122.5329",,Marin County,Q108117,,Police
SB978-485,San Ramon Police Department,https://www.sanramon.ca.gov,https://web.archive.org/web/20010331235859/http://www.sanramon.ca.gov/,Q113181308,,San Ramon,Q605472,"37.77945,-121.969",,Contra Costa County,Q108058,,Police
SB978-486,Sand City Police Department,https://www.sandcity.org,https://web.archive.org/web/19981207071120/http://www.sandcity.org/,Q113181309,,Sand City,Q2262091,"36.61405,-121.8506",,Monterey County,Q108072,,Police
SB978-487,Sanger Police Department,http://www.ci.sanger.ca.us,https://web.archive.org/web/20020601201942/http://www.ci.sanger.ca.us/,Q120751827,,Sanger,Q174427,"36.70887,-119.5564",,Fresno County,Q271915,,Police
SB978-488,Santa Ana Police Department,https://www.santa-ana.org,https://web.archive.org/web/20001018094541/http://santa-ana.org/,Q120751828,,Santa Ana,Q49244,"33.74958,-117.8745",,Orange County,Q5925,,Police
SB978-489,Santa Ana Unified School District Police Department,http://www.ci.sanger.ca.us,https://web.archive.org/web/20020601201942/http://www.ci.sanger.ca.us/,Q120751829,,Santa Ana,Q49244,"33.74958,-117.8745",,Orange County,Q5925,,School District
SB978-491,Santa Barbara County Sheriff's Department,https://www.sbsheriff.org,https://web.archive.org/web/19961228001941/http://www.sbsheriff.org/,Q120751830,,Santa Barbara,Q159288,"34.41938,-119.699",,Santa Barbara County,Q108106,,Sheriff
SB978-492,Santa Barbara Police Department,https://www.santabarbaraca.gov,https://web.archive.org/web/20040804210759/http://www.santabarbaraca.gov/,Q7419241,,Santa Barbara,Q159288,"34.41938,-119.699",,Santa Barbara County,Q108106,,Police
SB978-495,Santa Clara County Sheriff's Department,https://countysheriff.sccgov.org,https://web.archive.org/web/20221111172042/https://countysheriff.sccgov.org/,Q120751831,,San Jose,Q16553,"37.33865,-121.8854",,Santa Clara County,Q110739,,Sheriff
SB978-496,Santa Clara Police Department,https://www.santaclaraca.gov,https://web.archive.org/web/20071130222004/http://santaclaraca.gov/,Q98517741,,Santa Clara,Q159260,"37.35579,-121.9551",,Santa Clara County,Q110739,,Police
SB978-498,Santa Cruz County District Attorney,http://datinternet.co.santa-cruz.ca.us,https://web.archive.org/web/20091016064747/http://datinternet.co.santa-cruz.ca.us/,Q120751832,,Santa Cruz,Q159232,"36.97424,-122.031",,Santa Cruz County,Q108122,,District Attorney
SB978-499,Santa Cruz County Sheriff's Department,http://www.scsheriff.com,https://web.archive.org/web/20000120033321/http://www.scsheriff.com/,Q120751833,,Santa Cruz,Q159232,"36.97424,-122.031",,Santa Cruz County,Q108122,,Sheriff
SB978-500,Santa Cruz Police Department,https://www.cityofsantacruz.com,https://web.archive.org/web/20020628070207/http://cityofsantacruz.com/,Q120751834,,Santa Cruz,Q159232,"36.97424,-122.031",,Santa Cruz County,Q108122,,Police
SB978-501,Santa Fe Springs Police Services,https://www.cityofwhittier.org,https://web.archive.org/web/20020602124527/http://www.cityofwhittier.org/,Q120751835,Whittier Police Department,Santa Fe Springs,Q948045,"33.94649,-118.0838",,Los Angeles County,Q104994,,Police
SB978-502,Santa Maria Police Department,https://www.cityofsantamaria.org,https://web.archive.org/web/20031101024323/http://www.cityofsantamaria.org/,Q120751836,,Santa Maria,Q643953,"34.95313,-120.4345",,Santa Barbara County,Q108106,,Police
SB978-504,Santa Monica Police Department,https://www.santamonicapd.org,https://web.archive.org/web/19961227043532/http://santamonicapd.org/,Q17332595,,Santa Monica,Q47164,"34.01158,-118.4923",,Los Angeles County,Q104994,,Police
SB978-505,Santa Paula Police Department,https://spcity.org,https://web.archive.org/web/20030930122157/http://spcity.org/,Q120751837,,Santa Paula,Q985348,"34.35215,-119.0596",,Ventura County,Q108127,,Police
SB978-506,Santa Rosa Junior College Police Department,https://police.santarosa.edu,https://web.archive.org/web/20160309171631/http://police.santarosa.edu/,Q120751838,,Santa Rosa,Q212991,"38.43808,-122.7125",,Sonoma County,Q108067,,College/University
SB978-507,Santa Rosa Police Department,https://srcity.org,https://web.archive.org/web/20061006213118/http://www.srcity.org/,Q21016310,,Santa Rosa,Q212991,"38.43808,-122.7125",,Sonoma County,Q108067,,Police
SB978-508,Sausalito Police Department,https://www.sausalito.gov,https://web.archive.org/web/20170818114450/http://www.sausalito.gov/,Q120751839,,Sausalito,Q828729,"37.85924,-122.4886",,Marin County,Q108117,,Police
SB978-509,Scotts Valley Police Department,https://www.scottsvalleypd.com,https://web.archive.org/web/20000817022946/http://www.scottsvalleypd.com/,Q120751840,,Scotts Valley,Q598266,"37.04957,-122.0185",,Santa Cruz County,Q108122,,Police
SB978-510,Seal Beach Police Department,https://www.sealbeachca.gov,https://web.archive.org/web/20110126012247/http://sealbeachca.gov/,Q120751841,,Seal Beach,Q593039,"33.74256,-118.1052",,Orange County,Q5925,,Police
SB978-511,Seaside Police Department,http://www.ci.seaside.ca.us,https://web.archive.org/web/19970613042146/http://www.ci.seaside.ca.us/,Q120751842,,Seaside,Q986900,"36.6039,-121.853",,Monterey County,Q108072,,Police
SB978-512,Sebastopol Police Department,https://ci.sebastopol.ca.us,https://web.archive.org/web/20010410134950/http://www.ci.sebastopol.ca.us/,Q14683932,,Sebastopol,Q985264,"38.40179,-122.8251",,Sonoma County,Q108067,,Police
SB978-513,Selma Police Department,http://www.cityofselma.com,https://web.archive.org/web/20011127080107/http://www.cityofselma.com/,Q7448731,,Selma,Q983593,"36.56754,-119.6108",,Fresno County,Q271915,,Police
SB978-514,Shafter Police Department,https://www.shafter.com,https://web.archive.org/web/19961229213142/http://www.shafter.com/,Q120751843,,Shafter,Q985258,"35.50472,-119.2767",,Kern County,Q108047,,Police
SB978-517,Shasta County Sheriff's Department,https://www.co.shasta.ca.us,https://web.archive.org/web/19991127230449/http://www.co.shasta.ca.us/,Q120751844,,Redding,Q495361,"40.5876,-122.3925",,Shasta County,Q156350,,Sheriff
SB978-520,Sierra County Sheriff's Office,http://sierracounty.ca.gov,https://web.archive.org/web/20130621001204/http://www.sierracounty.ca.gov/,Q120751845,,Downieville,Q2261383,"39.56031,-120.8288",,Sierra County,Q156370,,Sheriff
SB978-521,Sierra Madre Police Department,https://www.cityofsierramadre.com,https://web.archive.org/web/20040904222029/http://www.cityofsierramadre.com/,Q18392019,,Sierra Madre,Q174026,"34.16187,-118.0572",,Los Angeles County,Q104994,,Police
SB978-522,Signal Hill Police Department,https://www.cityofsignalhill.org,https://web.archive.org/web/20070818165133/http://www.cityofsignalhill.org/,Q120751846,,Signal Hill,Q985349,"33.79677,-118.1677",,Los Angeles County,Q104994,,Police
SB978-523,Simi Valley Police Department,https://www.simivalley.org,https://web.archive.org/web/20000304111954/http://www.simivalley.org/,Q7517755,,Simi Valley,Q323414,"34.28946,-118.7177",,Ventura County,Q108127,,Police
SB978-525,Siskiyou County Sheriff's Department,https://www.co.siskiyou.ca.us,https://web.archive.org/web/19991103045516/http://www.co.siskiyou.ca.us/,Q120751847,,Yreka,Q2565455,"41.73122,-122.6357",,Siskiyou County,Q156374,,Sheriff
SB978-529,Solano County Sheriff's Department,https://www.solanocounty.com,https://web.archive.org/web/19981202142800/http://www.solanocounty.com/,Q120751848,,Fairfield,Q323432,"38.24924,-122.0443",,Solano County,Q108083,,Sheriff
SB978-531,Soledad Police Department,https://cityofsoledad.com,https://web.archive.org/web/20010202054200/http://www.cityofsoledad.com/,Q120751849,,Soledad,Q985256,"36.42843,-121.3277",,Monterey County,Q108072,,Police
SB978-534,Sonoma County Probation Department,https://sonomacounty.ca.gov,https://web.archive.org/web/20130427073820/http://sonomacounty.ca.gov/,Q120751850,,Santa Rosa,Q212991,"38.43808,-122.7125",,Sonoma County,Q108067,,Probation
SB978-535,Sonoma County Sheriff's Office,https://www.sonomasheriff.org,https://web.archive.org/web/19990424155214/http://www.sonomasheriff.org/,Q120751851,,Santa Rosa,Q212991,"38.43808,-122.7125",,Sonoma County,Q108067,,Sheriff
SB978-536,Sonoma Police Department,https://www.sonomasheriff.org,https://web.archive.org/web/19990424155214/http://www.sonomasheriff.org/,Q120751852,Sonoma County Sheriff's Department,Sonoma,Q11592,"38.29188,-122.4573",,Sonoma County,Q108067,,Police
SB978-537,Sonora Police Department,https://www.sonorapd.com,https://web.archive.org/web/20060910204026/http://www.sonorapd.com/,Q120751853,,Sonora,Q953567,"37.98329,-120.3822",,Tuolumne County,Q156346,,Police
SB978-538,South Gate Police Department,http://www.cityofsouthgate.org,https://web.archive.org/web/19981212023814/http://www.cityofsouthgate.org/,Q120751855,,South Gate,Q838772,"33.95722,-118.2056",,Los Angeles County,Q104994,,Police
SB978-539,South Lake Tahoe Police Department,https://www.cityofslt.us,https://web.archive.org/web/20030727093432/http://www.cityofslt.us/,Q120751856,,South Lake Tahoe,Q983602,"38.91162,-120.0078",,El Dorado County,Q108093,,Police
SB978-540,South Pasadena Police Department,https://www.southpasadenaca.gov,https://web.archive.org/web/20130510182252/http://southpasadenaca.gov,Q120751857,,South Pasadena,Q852581,"34.11582,-118.1518",,Los Angeles County,Q104994,,Police
SB978-541,South San Francisco Police Department,https://www.ssf.net,https://web.archive.org/web/19990208020521/http://www.ssf.net/,Q120751858,,South San Francisco,Q927122,"37.65607,-122.4142",,San Mateo County,Q108101,,Police
SB978-542,Southwestern Community College Police Department,https://www.swccd.edu,https://web.archive.org/web/20050924190958/http://swccd.edu/,Q120751859,,Chula Vista,Q49270,"32.6409,-117.0843",,San Diego County,Q108143,,College/University
SB978-544,Stanford University Department of Public Safety,https://police.stanford.edu,https://web.archive.org/web/20010511051818/http://police.stanford.edu/,Q120751860,,Palo Alto,Q47265,"37.44466,-122.1608",,Santa Clara County,Q110739,,College/University
SB978-546,Stanislaus County Sheriff's Department,https://www.scsdonline.com,https://web.archive.org/web/20110121135222/http://www.scsdonline.com/,Q7598959,,Modesto,Q204561,"37.64155,-121.0035",,Stanislaus County,Q108503,,Sheriff
SB978-548,Stockton Police Department,http://ww1.stocktonca.gov,https://web.archive.org/web/20180520072355/http://ww1.stocktonca.gov/,Q17108191,,Stockton,Q49240,"37.95373,-121.2905",,San Joaquin County,Q108499,,Police
SB978-551,Suisun City Police Department,https://police.suisun.com,https://web.archive.org/web/20110824215400/http://police.suisun.com/,Q120751861,,Suisun City,Q204087,"38.23912,-122.0369",,Solano County,Q108083,,Police
SB978-552,Sunnyvale Department of Public Safety,https://sunnyvale.ca.gov,https://web.archive.org/web/20031003025130/http://sunnyvale.ca.gov/,Q120751862,,Sunnyvale,Q208459,"37.37172,-122.038",,Santa Clara County,Q110739,,Police
SB978-556,Sutter County Sheriff's Department,https://www.suttercounty.org,https://web.archive.org/web/20000815210918/http://www.suttercounty.org/,Q120751863,,Yuba City,Q169948,"39.14094,-121.6198",,Sutter County,Q156377,,Sheriff
SB978-558,Taft Police Department,https://www.cityoftaft.org,https://web.archive.org/web/20021205122942/http://www.cityoftaft.org/,Q7675045,,Taft,Q983611,"35.14247,-119.4574",,Kern County,Q108047,,Police
SB978-559,Tehachapi Police Department,https://www.liveuptehachapi.com/29/Tehachapi-Police-Department,https://web.archive.org/web/20190106205243/http://liveuptehachapi.com/29/Tehachapi-Police-Department,Q7694823,,Tehachapi,Q985253,"35.13224,-118.4491",,Kern County,Q108047,,Police
SB978-561,Tehama County Sheriff's Department,https://tehamaso.org,https://web.archive.org/web/20000817022948/http://www.tehamaso.org/,Q120751864,,Red Bluff,Q546468,"40.17806,-122.2354",,Tehama County,Q109705,,Sheriff
SB978-563,Tiburon Police Department,http://www.townoftiburon.org/159/Police,https://web.archive.org/web/20160318183248/http://www.townoftiburon.org/159/Police,Q120751865,,Tiburon,Q984603,"37.88157,-122.4666",,Marin County,Q108117,,Police
SB978-564,Torrance Police Department,https://www.torranceca.gov/our-city/police,https://web.archive.org/web/20170718153506/http://www.torranceca.gov/our-city/police,Q7826926,,Torrance,Q489197,"33.83707,-118.3432",,Los Angeles County,Q104994,,Police
SB978-565,Tracy Police Department,https://www.cityoftracy.org/our-city/departments/police-department,https://web.archive.org/web/20220127143830/https://www.cityoftracy.org/our-city/departments/police-department,Q120751866,,Tracy,Q953409,"37.7397,-121.4264",,San Joaquin County,Q108499,,Police
SB978-569,Trinity County Sheriff's Department,https://www.trinitycounty.org/Sheriff-Department,https://web.archive.org/web/20180917111421/http://www.trinitycounty.org/Sheriff-Department,Q120751867,,Weaverville,Q3027750,"40.73243,-122.9404",,Trinity County,Q156188,,Sheriff
SB978-570,Truckee Police Department,https://www.truckeepolice.com,https://web.archive.org/web/20070118181359/http://www.truckeepolice.com/,Q120751869,,Truckee,Q506402,"39.32612,-120.2121",,Nevada County,Q109681,,Police
SB978-573,Tulare County Sheriff's Department,https://tularecounty.ca.gov,https://web.archive.org/web/20070109173146/http://www.tularecounty.ca.gov/,Q120751871,,Visalia,Q495373,"36.33377,-119.2926",,Tulare County,Q109686,,Sheriff
SB978-574,Tulare Police Department,https://www.tulare.ca.gov/government/departments/police,https://web.archive.org/web/20210415032348/https://www.tulare.ca.gov/government/departments/police,Q110833890,,Tulare,Q616562,"36.20649,-119.343",,Tulare County,Q109686,,Police
SB978-577,Tuolumne County Sheriff's Department,https://www.tuolumnecounty.ca.gov/341/Sheriffs-Office,https://web.archive.org/web/20180913120059/https://www.tuolumnecounty.ca.gov/341/Sheriffs-Office,Q120751872,,Sonora,Q953567,"37.98329,-120.3822",,Tuolumne County,Q156346,,Sheriff
SB978-578,Turlock Police Department,https://www.cityofturlock.org/policedepartment/index.asp,https://web.archive.org/web/20170812212701/http://www.cityofturlock.org/policedepartment/index.asp,Q120751873,,Turlock,Q1011205,"37.49528,-120.8467",,Stanislaus County,Q108503,,Police
SB978-579,Tustin Police Department,https://www.tustinca.org,https://web.archive.org/web/19991023103309/http://www.tustinca.org/,Q106610345,,Tustin,Q917513,"33.74425,-117.8188",,Orange County,Q5925,,Police
SB978-580,Twin Rivers Unified School District Police Services,https://www.twinriversusd.org,https://web.archive.org/web/20080415044442/http://www.twinriversusd.org/,Q120751874,,McClellan Park,Q9385088,"38.662222,-121.401667",,Sacramento County,Q108131,,School District
SB978-581,UC Berkeley Police Department,https://ucpd.berkeley.edu,https://web.archive.org/web/20130510190211/http://ucpd.berkeley.edu,Q120751875,,Berkeley,Q484678,"37.86988,-122.2705",,Alameda County,Q107146,,College/University
SB978-582,UC Davis Police Department,https://police.ucdavis.edu,https://web.archive.org/web/19971221154713/http://police.ucdavis.edu/,Q120751876,,Davis,Q668546,"38.54669,-121.7446",,Yolo County,Q109709,,College/University
SB978-583,UC Irvine Police Department,https://www.police.uci.edu,https://web.archive.org/web/20000303095011/http://www.police.uci.edu/,Q120751877,,Irvine,Q49219,"33.6873,-117.8259",,Orange County,Q5925,,College/University
SB978-584,UC Los Angeles Police Department,https://www.police.ucla.edu,https://web.archive.org/web/20170801045954/https://police.ucla.edu/,Q120751878,,Los Angeles,Q65,"34.05357,-118.2454",,Los Angeles County,Q104994,,College/University
SB978-585,UC Merced Police Department,https://police.ucmerced.edu,https://web.archive.org/web/20060913075254/http://police.ucmerced.edu/,Q120751879,,Merced,Q499189,"37.30152,-120.4869",,Merced County,Q109690,,College/University
SB978-586,UC Riverside Police Department,https://police.ucr.edu,https://web.archive.org/web/19980704021754/http://www.police.ucr.edu/,Q120753325,,Riverside,Q49243,"33.98171,-117.374",,Riverside County,Q108111,,College/University
SB978-587,UC San Diego Police Department,http://police.ucsd.edu,https://web.archive.org/web/20000823010143/http://police.ucsd.edu/,Q120751881,,San Diego,Q16552,"32.71568,-117.1617",,San Diego County,Q108143,,College/University
SB978-588,UC San Francisco Police Department,https://police.ucsf.edu,https://web.archive.org/web/19990125102246/http://www.police.ucsf.edu/,Q120751882,,San Francisco,Q62,"37.7557,-122.4428",,San Francisco,Q62,,College/University
SB978-589,UC Santa Barbara Police Department,https://www.police.ucsb.edu,https://web.archive.org/web/19981212020447/http://police.ucsb.edu/,Q120753421,,Santa Barbara,Q159288,"34.41938,-119.699",,Santa Barbara County,Q108106,,College/University
SB978-590,UC Santa Cruz Police Department,https://police.ucsc.edu,https://web.archive.org/web/20060415005446/http://police.ucsc.edu/,Q120751884,,Santa Cruz,Q159232,"36.97424,-122.031",,Santa Cruz County,Q108122,,College/University
SB978-591,Ukiah Police Department,https://www.ukiahpolice.com,https://web.archive.org/web/20120909210526/http://ukiahpolice.com/,Q120751885,,Ukiah,Q837105,"39.15093,-123.2079",,Mendocino County,Q108087,,Police
SB978-592,Union City Police Department,https://www.unioncity.org/197/Police,https://web.archive.org/web/20190119073831/https://www.unioncity.org/197/Police,Q120751886,,Union City,Q846402,"37.58883,-122.0275",,Alameda County,Q107146,,Police
SB978-597,Upland Police Department,https://www.uplandca.gov,https://web.archive.org/web/20100327212908/http://uplandca.gov/,Q120751887,,Upland,Q747466,"34.0994,-117.651",,San Bernardino County,Q108053,,Police
SB978-598,Vacaville Police Department,https://www.ci.vacaville.ca.us,https://web.archive.org/web/19981111190208/http://www.ci.vacaville.ca.us/,Q98517116,,Vacaville,Q850823,"38.35218,-121.9926",,Solano County,Q108083,,Police
SB978-600,Vallejo Police Department,https://vallejopd.net,https://web.archive.org/web/20201023215040/https://vallejopd.net/,Q113181326,,Vallejo,Q208445,"38.10095,-122.2549",,Solano County,Q108083,,Police
SB978-601,Ventura County Community College District Police Department,https://www.vcccd.edu,https://web.archive.org/web/20051124052551/http://www.vcccd.edu/,Q113181328,,Camarillo,Q846040,"34.2234,-119.0507",,Ventura County,Q108127,,College/University
SB978-602,Ventura County District Attorney,https://www.vcdistrictattorney.com,https://web.archive.org/web/20130616062851/http://www.vcdistrictattorney.com/,Q120751888,,Ventura,Q490434,"34.28082,-119.2923",,Ventura County,Q108127,,District Attorney
SB978-603,Ventura County Sheriff's Department,https://www.venturasheriff.org,https://web.archive.org/web/20181121141225/https://www.venturasheriff.org/,Q7920379,,Ventura,Q490434,"34.28082,-119.2923",,Ventura County,Q108127,,Sheriff
SB978-605,Ventura Police Department,https://www.cityofventura.ca.gov,https://web.archive.org/web/20170525063634/https://www.cityofventura.ca.gov/,Q113181331,,Ventura,Q490434,"34.28082,-119.2923",,Ventura County,Q108127,,Police
SB978-606,Vernon Police Department,http://www.cityofvernon.org,https://web.archive.org/web/20010302031515/http://www.cityofvernon.org/,Q113181332,,Vernon,Q934111,"34.00513,-118.2302",,Los Angeles County,Q104994,,Police
SB978-607,Victor Valley College Police Department,http://www.vvc.edu,https://web.archive.org/web/20021004052615/http://www.vvc.edu/,Q120751889,,Victorville,Q495353,"34.51167,-117.3236",,San Bernardino County,Q108053,,College/University
SB978-608,Visalia Police Department,https://www.visalia.city/depts/police/default.asp,https://web.archive.org/web/20150503062135/http://www.visalia.city/depts/police/default.asp,Q120751890,,Visalia,Q495373,"36.33377,-119.2926",,Tulare County,Q109686,,Police
SB978-609,Walnut Creek Police Department,https://www.walnut-creek.org/departments/public-safety/police,https://web.archive.org/web/20180206083408/http://walnut-creek.org/departments/public-safety/police,Q113181333,,Walnut Creek,Q493261,"37.90162,-122.0619",,Contra Costa County,Q108058,,Police
SB978-610,Watsonville Police Department,https://www.cityofwatsonville.org/2324/Police,https://web.archive.org/web/20220626012125/https://www.cityofwatsonville.org/2324/Police,Q120751891,,Watsonville,Q913543,"36.90903,-121.7555",,Santa Cruz County,Q108122,,Police
SB978-611,Weed Police Department,https://www.ci.weed.ca.us/police,https://web.archive.org/web/20200223072942/https://www.ci.weed.ca.us/police,Q113181336,,Weed,Q985254,"41.42507,-122.3843",,Siskiyou County,Q156374,,Police
SB978-613,West Covina Police Department,https://wcpd.org,https://web.archive.org/web/19970406123105/http://www.wcpd.org/,Q120751892,,West Covina,Q494728,"34.07214,-117.9381",,Los Angeles County,Q104994,,Police
SB978-614,West Sacramento Police Department,https://www.cityofwestsacramento.org/government/departments/police,https://web.archive.org/web/20180711221200/https://www.cityofwestsacramento.org/government/departments/police,Q120751893,,West Sacramento,Q983600,"38.57162,-121.5501",,Yolo County,Q109709,,Police
SB978-615,West Valley-Mission Community College District Police Department,https://wvm.edu/services/police/Pages/default.aspx,https://web.archive.org/web/20171016023841/https://www.wvm.edu/services/police/Pages/default.aspx,Q120751894,,Saratoga,Q927163,"37.27105,-122.014",,Santa Clara County,Q110739,,College/University
SB978-616,Westminster Police Department,https://www.westminster-ca.gov/departments/police,https://web.archive.org/web/20210327101513/https://www.westminster-ca.gov/departments/police,Q120751427,,Westminster,Q838759,"33.75931,-117.9858",,Orange County,Q5925,,Police
SB978-618,Wheatland Police Department,http://www.wheatland.ca.gov/departments/police/,https://web.archive.org/web/20160807183625/http://www.wheatland.ca.gov/departments/police/,Q120751895,,Wheatland,Q2370501,"39.00956,-121.4251",,Yuba County,Q196014,,Police
SB978-620,Whittier Police Department,https://www.cityofwhittier.org/government/police,https://web.archive.org/web/20181029170725/https://www.cityofwhittier.org/government/police,Q85815444,,Whittier,Q838791,"33.97542,-118.0339",,Los Angeles County,Q104994,,Police
SB978-622,Willits Police Department,http://cityofwillits.org/148/Police,https://web.archive.org/web/20190718230110/https://cityofwillits.org/148/Police/,Q120751896,,Willits,Q2334435,"39.40415,-123.3518",,Mendocino County,Q108087,,Police
SB978-623,Windsor Police Department,https://www.townofwindsor.com/174/Police-Department,https://web.archive.org/web/20161110171305/http://www.townofwindsor.com/174/Police-Department,Q120751897,Sonoma County Sheriff's Department,Windsor,Q986852,"38.54938,-122.8132",,Sonoma County,Q108067,,Police
SB978-624,Winters Police Department,http://www.winterspolice.org,https://web.archive.org/web/20010304064210/http://www.winterspolice.org/,Q120751898,,Winters,Q986857,"38.52192,-121.9707",,Yolo County,Q109709,,Police
SB978-626,Woodland Police Department,https://www.cityofwoodland.org,https://web.archive.org/web/20010808065232/http://www.cityofwoodland.org/,Q120751899,,Woodland,Q837129,"38.67854,-121.7731",,Yolo County,Q109709,,Police
SB978-627,Yolo County District Attorney,https://yoloda.org,https://web.archive.org/web/20010405052338/http://www.yoloda.org/,Q120751900,,Woodland,Q837129,"38.67854,-121.7731",,Yolo County,Q109709,,District Attorney
SB978-628,Yolo County Sheriff's Department,https://www.yolocountysheriff.com,https://web.archive.org/web/20020928191924/http://www.yolocountysheriff.com/,Q120751901,,Woodland,Q837129,"38.67854,-121.7731",,Yolo County,Q109709,,Sheriff
SB978-629,Yreka Police Department,http://www.ci.yreka.ca.us,https://web.archive.org/web/20090310232942/http://www.ci.yreka.ca.us/,Q120751902,,Yreka,Q2565455,"41.73122,-122.6357",,Siskiyou County,Q156374,,Police
SB978-630,Yuba City Police Department,https://www.yubacity.net/city_hall/departments/police_department,https://web.archive.org/web/20160402115655/http://www.yubacity.net/city_hall/departments/police_department,Q120751903,,Yuba City,Q169948,"39.14094,-121.6198",,Sutter County,Q156377,,Police
SB978-633,Yuba County Sheriff's Department,https://sheriff.co.yuba.ca.us,https://web.archive.org/web/20070311220753/http://sheriff.co.yuba.ca.us/,Q120751904,,Marysville,Q950966,"39.14497,-121.5872",,Yuba County,Q196014,,Sheriff